{"type":"FeatureCollection","features":[{"type":"Feature","id":"node/3232296840","geometry":{"type":"Point","coordinates":[-108.41218,54.5174185]},"properties":{"name":"\u14ef\u1426\u146d\u1426\u144a \u14f5\u1472\u1426\u1403\u1472\u14c2\u157d Waterhen Lake","name:cr":"\u14ef\u1426\u146d\u1426\u144a \u14f5\u1472\u1426\u1403\u1472\u14c2\u157d","name:crk":"sihkihp s\u00e2kahikanihk","name:en":"Waterhen Lake","place":"village","osmId":3232296840,"osmType":"node","sourceUrl":"https://www.openstreetmap.org/node/3232296840"}},{"type":"Feature","id":"relation/14577248","geometry":{"type":"Point","coordinates":[-109.1393293,54.5583016]},"properties":{"email":"MeadowLake@gov.sk.ca","leisure":"nature_reserve","name":"Meadow Lake Provincial Park","name:en":"Meadow Lake Provincial Park","name:fr":"Parc provincial de Meadow Lake","operator":"Saskatchewan Ministry of Parks, Culture and Sport","type":"multipolygon","website":"https://saskparks.tourismsaskatchewan.com/meadow-lake","wikidata":"Q12061558","wikipedia":"en:Meadow Lake Provincial Park","osmId":14577248,"osmType":"relation","sourceUrl":"https://www.openstreetmap.org/relation/14577248"}}]}
