{"type":"FeatureCollection","features":[{"type":"Feature","geometry":{"type":"MultiPolygon","coordinates":[[[[-108.28528889369606,54.50024698097734],[-108.27284840746862,54.50023966038278],[-108.27283616787575,54.50746292589106],[-108.27282200428057,54.51467723239876],[-108.27282148140111,54.51503854742411],[-108.27281144168938,54.52189683790615],[-108.27279718409896,54.52911806041388],[-108.28530440233992,54.52910924799889],[-108.29779974257828,54.52910427858522],[-108.2977893571598,54.52187805508041],[-108.29777863474244,54.51465164657535],[-108.29774978332162,54.50742544707217],[-108.29772098792051,54.50025427157261],[-108.28528889369606,54.50024698097734]]],[[[-108.39769774264786,54.325145538961685],[-108.39759166862827,54.32516914197531],[-108.39749248061337,54.32520139098878],[-108.39740222660332,54.32524162000178],[-108.39732277259853,54.32528899701407],[-108.39725576259892,54.3253425440254],[-108.39720257960452,54.32540115303556],[-108.39809905983522,54.325399831934355],[-108.39810064881947,54.32535080593071],[-108.39808602479974,54.32530252292899],[-108.39805573777689,54.32525679592914],[-108.39801092375161,54.325215343931255],[-108.39795327172499,54.3251797239353],[-108.39788494469796,54.32515127694094],[-108.3978085106716,54.32513106994818],[-108.39769774264786,54.325145538961685]]],[[[-108.32240839591819,54.52898869779314],[-108.32230685995044,54.529163746816884],[-108.3229450191163,54.52916515174475],[-108.3229445239475,54.52866087270954],[-108.32240839591819,54.52898869779314]]],[[[-108.3542324417632,54.31097177185894],[-108.35424345978116,54.31101770686096],[-108.35426951480231,54.31106151786108],[-108.35430961982588,54.31110153785942],[-108.3543622468509,54.311136245855955],[-108.35442539487643,54.31116432085079],[-108.35526917117514,54.31141015077317],[-108.3558409984115,54.311679776727814],[-108.35660145764744,54.31180041065063],[-108.35695093272982,54.311776749609585],[-108.35702825668317,54.31157462958658],[-108.35695903360997,54.31140678758252],[-108.35685581756846,54.311361679590966],[-108.35676348952732,54.311309119597624],[-108.35668361248726,54.31124999460241],[-108.35661753644885,54.31118530760532],[-108.35656638341291,54.31111615260618],[-108.35653101537991,54.311043699605015],[-108.35651203335041,54.31096917460189],[-108.3542324417632,54.31097177185894]]],[[[-108.32365923398184,54.49828189650175],[-108.32321533986682,54.49828171955192],[-108.3232150344698,54.500088406678536],[-108.32450401480386,54.50008897653282],[-108.32633701827885,54.50008974932561],[-108.32633704767574,54.49828305719901],[-108.32365923398184,54.49828189650175]]],[[[-108.38473428039497,54.325418235442676],[-108.38983161170725,54.325411374867464],[-108.39028400682373,54.32541070181637],[-108.38983138362316,54.325156670849445],[-108.38961412756679,54.32515549287389],[-108.38910358834134,54.324871355911384],[-108.38812285297296,54.324521506997286],[-108.38800410186609,54.32429050699431],[-108.387866401808,54.32422202000503],[-108.38774227875066,54.32414517601357],[-108.3876332046947,54.324060889019904],[-108.38754047964083,54.32397016102399],[-108.38746520658972,54.323874072025674],[-108.38740827854195,54.32377376302501],[-108.3873703724981,54.32367042802197],[-108.38686121328199,54.32341355106125],[-108.38629482497018,54.32291117208962],[-108.38616259091964,54.32286131510098],[-108.38602188586975,54.322820136113926],[-108.38587437082114,54.322788121128326],[-108.38572178677441,54.32276564814393],[-108.38556593373002,54.32275298016061],[-108.38540864768858,54.32275026817816],[-108.38525178665051,54.32275754419633],[-108.3850972016163,54.32277472221499],[-108.3846635955866,54.32302355928145],[-108.38458382373516,54.32353617132663],[-108.38484248405966,54.324317448352716],[-108.38479931607958,54.32441157136424],[-108.38477327010462,54.324507820373945],[-108.38476463413454,54.32460513638178],[-108.38477350216888,54.32470244438768],[-108.38479977820745,54.32479867339152],[-108.38484317124968,54.32489276039327],[-108.38473428039497,54.325418235442676]]],[[[-108.36980654928486,54.45136675999499],[-108.370902292254,54.45342682401562],[-108.37116420342417,54.453734573007615],[-108.37130768850024,54.45385156199959],[-108.37146392557769,54.45396286798972],[-108.37163225065622,54.45406801897809],[-108.37181195173548,54.45416657296465],[-108.37200226881514,54.45425810994959],[-108.3722023968949,54.45434224493287],[-108.37241148997441,54.454418620914566],[-108.37336608924545,54.45449135881178],[-108.37336667013001,54.45114061657667],[-108.3714908456672,54.451207217793396],[-108.37094090548526,54.451087677847156],[-108.3705355533019,54.45085179287643],[-108.37051316604943,54.45011051382696],[-108.37026011389659,54.44984789883713],[-108.37019261987376,54.44983175084364],[-108.37012049685298,54.44982531985131],[-108.3700478048354,54.44982896585982],[-108.36997862982197,54.449842483868586],[-108.36991686281358,54.44986511387715],[-108.36986597481054,54.449895583885045],[-108.36982883281313,54.44993217989179],[-108.36980752182113,54.44997284289705],[-108.36963369500984,54.45067472396593],[-108.36980654928486,54.45136675999499]]],[[[-108.36092065692996,54.469209661250844],[-108.3578101431249,54.46920835960246],[-108.35781069544737,54.47017554067022],[-108.35781140572736,54.471015071729],[-108.36092159353234,54.471016364377405],[-108.36403162533723,54.47101766402585],[-108.36403146714457,54.47043967398535],[-108.36403101973491,54.46921087889928],[-108.36092065692996,54.469209661250844]]],[[[-108.37859411727396,54.32075831080563],[-108.37829956227031,54.32097750385434],[-108.3774843881084,54.32112409495657],[-108.37748513652842,54.32542763726063],[-108.38153248557066,54.32542247180397],[-108.38118504227097,54.324785892798154],[-108.3806844550013,54.3243599768245],[-108.38014957676216,54.32405334486317],[-108.37988870660284,54.32377429487284],[-108.37968335852835,54.323709075891365],[-108.37957454444063,54.32352816989087],[-108.37956741838576,54.323367534880276],[-108.37957772333544,54.3232069578678],[-108.37960541828986,54.323047085853396],[-108.37965039124916,54.3228885618371],[-108.37971246321352,54.32273202181905],[-108.37979138218306,54.32257809779927],[-108.37988683015799,54.32242740577787],[-108.3805774161924,54.321991935669224],[-108.38077423713523,54.32166471562393],[-108.38112106113402,54.321389832565394],[-108.38117950813198,54.32133808855512],[-108.38122259312442,54.32128142754628],[-108.38124914211144,54.32122139453904],[-108.38125843209349,54.32115962553362],[-108.38125021007096,54.32109780553019],[-108.38122469804455,54.32103761952882],[-108.38118259401487,54.32098070752956],[-108.38112504498287,54.320928619532346],[-108.38075435078977,54.32063308955323],[-108.38028524465467,54.320590209603125],[-108.38004674961697,54.3206624526351],[-108.37935863241898,54.32060018270827],[-108.37859411727396,54.32075831080563]]],[[[-108.42412112180975,54.443830275325446],[-108.4241210098637,54.44399245633683],[-108.42411839801258,54.44744461457897],[-108.42411718561414,54.449251786705645],[-108.42429893566101,54.449251518685074],[-108.42721866641342,54.44924670835447],[-108.42722163356291,54.446690792175126],[-108.42722320712821,54.445384192083466],[-108.42722491261144,54.44383100397448],[-108.42412112180975,54.443830275325446]]],[[[-108.37367609533342,54.4545149757784],[-108.37401719043326,54.454549998742316],[-108.37436095353033,54.45457462070513],[-108.37470645062437,54.454588776667094],[-108.3750527447151,54.454592427628185],[-108.37539889580236,54.45458556358857],[-108.37574396288579,54.45456820254834],[-108.37608700796517,54.4545403925076],[-108.37726729120688,54.454349895360785],[-108.37884691945074,54.45385597514759],[-108.37911426647977,54.45373553110895],[-108.37936887850249,54.4536060570711],[-108.37960985951881,54.453468011034154],[-108.37983636252865,54.45332187799832],[-108.38004758653214,54.45316817196366],[-108.38024278952905,54.45300743593025],[-108.38081774950761,54.45249671782947],[-108.38090736242516,54.4521794967971],[-108.38066345831199,54.452028950814125],[-108.37915103489027,54.45193656797859],[-108.3778180503037,54.45120965307832],[-108.3775119752349,54.451240703115126],[-108.37624409708367,54.45177084029564],[-108.37550910688554,54.45174648137701],[-108.37410629731147,54.45111141649105],[-108.37367678920612,54.45112836454079],[-108.37367609533342,54.4545149757784]]],[[[-108.31047906685995,54.44211210704751],[-108.29803464064467,54.44212957645385],[-108.29801660587589,54.44584788971752],[-108.29848891790925,54.445580426645364],[-108.29858951188652,54.44543369562371],[-108.29870864987019,54.44529175760025],[-108.29884566486034,54.44515540957519],[-108.29899978885703,54.445025412548645],[-108.29917015786026,54.44490249752076],[-108.29935581987003,54.44478735049171],[-108.29955573388631,54.44468061646165],[-108.30045949302988,54.44440856234047],[-108.30269898661903,54.44443702308959],[-108.30927579576807,54.44277262022985],[-108.31047886604541,54.4426701320868],[-108.31347268066642,54.44220753771615],[-108.31412694182976,54.44218948464103],[-108.31580903636176,54.442480375471504],[-108.31658423157765,54.442526482387194],[-108.31687758668426,54.4426186823606],[-108.31716197079152,54.442719980335596],[-108.31743655589918,54.4428300813123],[-108.31770054100693,54.44294866429083],[-108.31795315511438,54.44307538227121],[-108.31819366022135,54.443209865253515],[-108.31842135532742,54.44335172223779],[-108.31863557643234,54.443500538224036],[-108.31883569753576,54.44365587921235],[-108.32001218591908,54.44389316409619],[-108.32293603575793,54.444140555783356],[-108.32291039507082,54.442093864642324],[-108.31047906685995,54.44211210704751]]],[[[-108.39891972074024,54.46916450295029],[-108.3989227953435,54.47097123407643],[-108.4020310961457,54.470967651724564],[-108.40429872773086,54.470964878467825],[-108.40501900091668,54.47096401838626],[-108.40787260265303,54.47096058506315],[-108.4082480187499,54.470960163020614],[-108.40824670814695,54.46915320489433],[-108.40798569007957,54.469153464923856],[-108.40513776334483,54.46915702224633],[-108.4051345043078,54.46604932502912],[-108.4051338561389,54.465543252993804],[-108.40367698076297,54.465545065158736],[-108.40206098434604,54.46554713334164],[-108.39891372453391,54.46555095269795],[-108.39891668612215,54.467313090820994],[-108.39891679813707,54.4673577748241],[-108.39891972074024,54.46916450295029]]],[[[-108.39240521446999,54.467405731564],[-108.38930460767605,54.46742855891632],[-108.38930796025855,54.469173178038155],[-108.38930809328222,54.46924402404307],[-108.38914933724159,54.46924536706112],[-108.38620761748918,54.469269563395514],[-108.38614231404821,54.47099705552393],[-108.38633729009848,54.47099667150182],[-108.3986121932634,54.47097185411158],[-108.39860658405767,54.46736002085935],[-108.39550582426388,54.46738300421172],[-108.39550383087798,54.466227007130975],[-108.39550315971228,54.465730462096296],[-108.39550278665976,54.4655731250853],[-108.39409992530014,54.465582181244606],[-108.39240202286494,54.46559314943741],[-108.39240521446999,54.467405731564]]],[[[-108.37055712771983,54.31929961760844],[-108.37040710672579,54.319434929634916],[-108.37027300673765,54.319575839660004],[-108.37015543575546,54.319721705683556],[-108.37005492577909,54.3198718687055],[-108.36997193480833,54.320025645725764],[-108.36995548884472,54.32014872073628],[-108.36995690188581,54.32027216774488],[-108.3699761619313,54.320395102751384],[-108.37001313298093,54.320516645755795],[-108.37006755003429,54.3206359267581],[-108.37036972216195,54.32078651773471],[-108.37067533425574,54.320831903703436],[-108.37121589135779,54.32071849863451],[-108.37169752640872,54.32049637956452],[-108.37184575742153,54.32041917854234],[-108.37198260342907,54.32033510052098],[-108.37210713443137,54.32024471650052],[-108.3722185004284,54.3201486414812],[-108.37231594442018,54.32004752746309],[-108.37239880540679,54.319942064446295],[-108.37242017837319,54.3198235454355],[-108.37246005834496,54.31970667242271],[-108.37251811432226,54.31959243140809],[-108.37259385430531,54.31948178639178],[-108.37268663829424,54.319375669373784],[-108.37279568428913,54.31927497735438],[-108.3729200722901,54.31918055833369],[-108.37309870031704,54.319122515309424],[-108.37328492834881,54.319073308285],[-108.37347747838528,54.31903327226044],[-108.37367503242615,54.319002684236],[-108.37387623647116,54.318981753211844],[-108.37407971251993,54.318970620188125],[-108.37420616356005,54.318993318175494],[-108.37432506960191,54.31902719816446],[-108.37443355564447,54.3190714431554],[-108.37452900468678,54.3191249811484],[-108.37460910672769,54.31918652014372],[-108.37467192776637,54.319254574141446],[-108.37471594780173,54.31932749614165],[-108.37483736591629,54.319579706145774],[-108.37473696508367,54.32016568419854],[-108.37498629327169,54.32054077319693],[-108.3759276886286,54.32088672811526],[-108.37605368766442,54.32089690310178],[-108.376180878697,54.32089622408742],[-108.37630653772567,54.320884705072444],[-108.37642797974966,54.32086259305718],[-108.37654260476862,54.32083036204199],[-108.37664795778204,54.32078869902714],[-108.37672905081142,54.32081436801983],[-108.37681666683955,54.320831185011166],[-108.37690800586556,54.320838613001385],[-108.37700014688863,54.320836412990815],[-108.37709014590797,54.320824655979855],[-108.37717512492293,54.320803717968815],[-108.37717461505908,54.31818489778375],[-108.37717343267111,54.31094345827186],[-108.36667019396678,54.31095696445642],[-108.36728213131023,54.31152022342731],[-108.36747978838541,54.31159358141024],[-108.36766869346079,54.31167444039465],[-108.36784801453607,54.311762445380666],[-108.36801696261082,54.31185720836833],[-108.36817479468489,54.31195831235772],[-108.3683208137578,54.31206531234883],[-108.3684543798293,54.312177738341724],[-108.36937678815728,54.312450959257085],[-108.36956889524802,54.312575794244275],[-108.36989100635353,54.31264383021279],[-108.37058684355497,54.31271056013913],[-108.37075871358778,54.31267556411727],[-108.37093578962535,54.312650995095574],[-108.3711162266673,54.312637109074274],[-108.3712981457132,54.31263405005357],[-108.37147964876262,54.312641850033664],[-108.37164056183128,54.31272428902133],[-108.37179024289934,54.312813669010815],[-108.37192781996637,54.31290946900208],[-108.37205248803205,54.3130111289952],[-108.37216352309598,54.31311805799027],[-108.37226027315765,54.313229629987234],[-108.37234217421693,54.31334519398618],[-108.37235753426194,54.31346981999326],[-108.37235159130162,54.31359472000278],[-108.37232440633544,54.3137186530146],[-108.37227624836314,54.31384038802863],[-108.37220759738443,54.31395871304475],[-108.37211913439911,54.314072454062774],[-108.37201173840708,54.314180479082495],[-108.37188647840813,54.31428171310376],[-108.37174459840233,54.314375152126374],[-108.37158750738975,54.314459865150056],[-108.37141677137052,54.31453501117464],[-108.37123408234473,54.31459984219979],[-108.37014430706779,54.31461230832346],[-108.3686597345856,54.31431131746954],[-108.36850337554061,54.314297038486124],[-108.36834525349856,54.31429324550371],[-108.36818741746004,54.31429998852194],[-108.36803191742564,54.314317180540655],[-108.36788077039564,54.31434459955968],[-108.36773593437063,54.31438188857864],[-108.36759928835073,54.31442856359733],[-108.36747260633636,54.31448401961552],[-108.3674481123437,54.3145254466212],[-108.36744271335668,54.31456916562492],[-108.36745677537456,54.314612219626376],[-108.36748934639594,54.31465169862552],[-108.36753822641953,54.31468493362235],[-108.36769266748706,54.3147690086109],[-108.36785902155499,54.31484491859749],[-108.36803602762281,54.31491208958231],[-108.36822234868997,54.314970014565425],[-108.36841657375598,54.3150182535469],[-108.36959033010235,54.315150664424046],[-108.37059235634064,54.31508936030673],[-108.37071001937944,54.31511512629531],[-108.37082006741953,54.31515057228538],[-108.37092018845999,54.315194955277285],[-108.3710082725,54.31524734027106],[-108.37108246953869,54.31530662326688],[-108.37114121357524,54.315371559264854],[-108.37118327260887,54.31544078226498],[-108.37127760476369,54.315836522282375],[-108.37103751877382,54.316054898324836],[-108.37105458380057,54.31612284732775],[-108.37105230082267,54.31619151233282],[-108.37103073583935,54.31625902234005],[-108.37099047385023,54.316323540349174],[-108.370932611855,54.3163833083599],[-108.3704888108519,54.31672093943377],[-108.3698574918082,54.3170823955305],[-108.36849903355665,54.31738210170482],[-108.36830318955832,54.31754038373806],[-108.36826799157986,54.317633203748606],[-108.368248729606,54.31772760675744],[-108.36824559363656,54.31782266376453],[-108.36825861367116,54.31791743176977],[-108.36828766370945,54.318010975773085],[-108.36833245375115,54.31810237177453],[-108.36839254279583,54.31819071777398],[-108.36845897590936,54.3184830897872],[-108.36868168800332,54.31859384076991],[-108.36890066706621,54.31861325574659],[-108.36938196811563,54.318386552676316],[-108.37014031927272,54.318269704582626],[-108.37023765729815,54.31827072557167],[-108.3703335863261,54.31828042756154],[-108.37042585235585,54.31829858355243],[-108.37051229138682,54.318324766544535],[-108.37059087541816,54.318358363538096],[-108.37065975644919,54.31839858353319],[-108.3707870426259,54.31883486154968],[-108.37055712771983,54.31929961760844]]],[[[-108.44188688333026,54.43462020167093],[-108.4365134959427,54.43461834727852],[-108.43651444059454,54.436576058415575],[-108.43651697734784,54.441840996784066],[-108.439613076148,54.44184376243406],[-108.4396183875476,54.44003641230685],[-108.44132554498873,54.44003784211384],[-108.44581048714758,54.440041525606816],[-108.44581365376375,54.43888626852557],[-108.44581551654713,54.43823426147964],[-108.44891135834692,54.43823669512963],[-108.44892143214638,54.434622349875426],[-108.44188688333026,54.43462020167093]]],[[[-108.42410926245523,54.5146800222799],[-108.42411055387556,54.52191021378407],[-108.42409748713004,54.52268037683921],[-108.4262705900981,54.523893303677575],[-108.42720189066128,54.524856019639174],[-108.42734960782607,54.5252340416488],[-108.42718505889795,54.52557585769127],[-108.42727167995723,54.52568584268913],[-108.42777472508998,54.52569398663268],[-108.43031853456543,54.52514950530654],[-108.43185776078303,54.52461104209462],[-108.43334607678474,54.52346708484623],[-108.4341459346376,54.5224101396819],[-108.43422761152247,54.5220031756443],[-108.43414181846151,54.52188745964598],[-108.43407936240487,54.5217664736446],[-108.43399841534469,54.52164925664558],[-108.43389963428146,54.52153675964895],[-108.43378382521577,54.52142989965461],[-108.4336519301481,54.52132954866254],[-108.43350502407893,54.52123651967274],[-108.43334430100896,54.521151572685014],[-108.43149346523948,54.52028254383413],[-108.42935467386408,54.517825581905115],[-108.4283512011477,54.51646030592358],[-108.42870896966504,54.514741621763164],[-108.42860832861366,54.514665950769285],[-108.42834962547654,54.51445598978395],[-108.42807618033774,54.514252452800726],[-108.42778845819753,54.51405569081962],[-108.42748695905613,54.51386604184047],[-108.42717220091377,54.51368383086345],[-108.42684472277071,54.51350937488841],[-108.42650509262727,54.513342971915236],[-108.42603653246773,54.513228249960335],[-108.42556085330986,54.5131239170069],[-108.42507873715385,54.51303012205497],[-108.4245908709999,54.512946999104464],[-108.42409795584825,54.51287466715524],[-108.42410926245523,54.5146800222799]]],[[[-108.33602530737872,54.44484532735437],[-108.33619605042826,54.44486143433624],[-108.33636371747984,54.444886190319],[-108.33652702553316,54.44491940430293],[-108.33668471758773,54.44496082128801],[-108.3370018130182,54.44600859632582],[-108.3372528371631,54.44624894331433],[-108.33939526780222,54.44650420409023],[-108.34063052812532,54.44651494395143],[-108.34155270528552,54.44627950283069],[-108.3424819824508,54.44605374770985],[-108.34341805862111,54.44583775258889],[-108.34436063379627,54.445631588467954],[-108.34530940597641,54.445435319346956],[-108.34626406616132,54.445249010226014],[-108.34722430835106,54.44507272010512],[-108.34815461061491,54.44514270900492],[-108.34813560659924,54.4421037457936],[-108.33567823837572,54.442099190200565],[-108.32322046415088,54.44209342960733],[-108.32324640085085,54.44417860575097],[-108.32479484231453,54.444368140589404],[-108.32911240173583,54.44528282616602],[-108.33016058903475,54.44536625105349],[-108.33153693334076,54.44521575988743],[-108.33392688779503,54.44472245658276],[-108.33567985528744,54.44483948039298],[-108.33585280133164,54.444837989373355],[-108.33602530737872,54.44484532735437]]],[[[-108.36717219663552,54.43643337524447],[-108.36717250968375,54.43657821625461],[-108.36717683629536,54.43841403638303],[-108.36384627042833,54.43839576875807],[-108.36093154066941,54.438379539086306],[-108.34967286973745,54.43831666235389],[-108.34844098641666,54.43830976349255],[-108.34844535961949,54.441923700745974],[-108.36090700884303,54.4419273833382],[-108.37336884006533,54.44192979093014],[-108.37336988832996,54.436711682563704],[-108.37336991426142,54.43650553554919],[-108.36717219663552,54.43643337524447]]],[[[-108.37116002924536,54.44719227354909],[-108.372522309959,54.448278255471315],[-108.37307461130608,54.44889220845193],[-108.3733672823921,54.44892327942105],[-108.37336873012543,54.44211049394279],[-108.36090713090314,54.44210818135091],[-108.3484454476796,54.44210440975866],[-108.34846808970387,54.44516619797115],[-108.34891738883091,54.44519888892268],[-108.34936434296053,54.44524110887515],[-108.34980835709258,54.44529280282866],[-108.35024884222679,54.44535390278316],[-108.35068521036307,54.44542432473878],[-108.3511168815012,54.44550397669559],[-108.3525282751149,54.44625151458865],[-108.35851941587038,54.44687128895514],[-108.36090971467522,54.447432557724404],[-108.36122221078612,54.447523027695475],[-108.36154244189578,54.44760379366495],[-108.36186951900393,54.44767463263294],[-108.36220253811021,54.44773534659954],[-108.36254057721439,54.44778576956489],[-108.36288269831618,54.44782576052902],[-108.36322795541523,54.44785520849209],[-108.36357539351134,54.44787403345414],[-108.36392404860418,54.44788218241529],[-108.36427295869355,54.4478796323757],[-108.36507747287915,54.44781216828005],[-108.3667670051282,54.44724787504948],[-108.36798379637158,54.447033991896944],[-108.36975226080482,54.446961979692034],[-108.37116002924536,54.44719227354909]]],[[[-108.40508292899351,54.47114473739165],[-108.40552067151881,54.47238062842863],[-108.40764699907106,54.47838360160808],[-108.40789497636871,54.47908347762898],[-108.41020450414105,54.48560076782337],[-108.4102305721725,54.485674686825575],[-108.41100271609949,54.487853200890505],[-108.41104054914553,54.48796171689378],[-108.4110772991913,54.48807035989724],[-108.41111296423682,54.48817912390082],[-108.4111475442821,54.4882880079045],[-108.41118103632715,54.48839700690835],[-108.41121344137197,54.48850611691228],[-108.41124475641655,54.48861533491636],[-108.41127498146085,54.48872465792058],[-108.41130411450493,54.48883407992496],[-108.41133215554875,54.48894359892943],[-108.41135910359236,54.48905321093405],[-108.41138495763568,54.489162912938774],[-108.41140971667872,54.489272699943676],[-108.41143337872153,54.48938256894866],[-108.4114559457641,54.4894925159538],[-108.4114774138064,54.48960253795906],[-108.41149778384839,54.48971262996445],[-108.41151705589019,54.48982278896999],[-108.41153522793171,54.489933011975616],[-108.41155229897296,54.490043293981365],[-108.41156827001393,54.49015363198728],[-108.41158314005462,54.49026402299336],[-108.4115969070951,54.49037446199947],[-108.41160957313524,54.490484945005775],[-108.41162113517515,54.49059546901217],[-108.41184613799119,54.49286448814531],[-108.41185959704042,54.49300142715331],[-108.41255897157846,54.50005595756703],[-108.41632028154935,54.50005152614088],[-108.41457421669742,54.49286746983667],[-108.41440494837262,54.49202612779702],[-108.414253101052,54.49118366075536],[-108.41411869573547,54.49034018971163],[-108.41400175142323,54.489495837665864],[-108.41390228611533,54.488650727618044],[-108.41382030881165,54.48780497956818],[-108.41377065069368,54.48749001555182],[-108.41373802257979,54.48717429853347],[-108.41372245347023,54.4868581395131],[-108.41372396036498,54.48654185149085],[-108.41374254026424,54.4862257484666],[-108.41377817616808,54.48591014044051],[-108.41383083107658,54.485595342412566],[-108.41390476686524,54.48490523935595],[-108.41399550865852,54.48421581629749],[-108.41410303845647,54.483527213237174],[-108.41422733225902,54.48283956617501],[-108.41436836406628,54.48215301511104],[-108.41452610687827,54.4814676990453],[-108.41493680062038,54.480376962922556],[-108.41607933754463,54.479265407715495],[-108.41615506252941,54.47916121969961],[-108.41621536250912,54.47905367068526],[-108.41625980248385,54.478943535672535],[-108.41628806545381,54.47883160266153],[-108.41629994541917,54.47871867865228],[-108.41629535938024,54.47860557464492],[-108.41627434033725,54.47849310263942],[-108.41623703829062,54.478382071635856],[-108.41623967125224,54.478265080627416],[-108.41622309720903,54.478148477621104],[-108.41618746616139,54.47803333161709],[-108.4161331051098,54.47792069461539],[-108.41606051205459,54.477811597615975],[-108.41597035099639,54.47770703761884],[-108.4158634469357,54.47760797462402],[-108.41366014689207,54.47618668477395],[-108.41305993765262,54.4759339388242],[-108.41135988207226,54.47551135598704],[-108.41068358879846,54.47521444504275],[-108.40866680762132,54.47324828713339],[-108.40835597637896,54.47276247813456],[-108.40832554627983,54.47248893711885],[-108.40827777417657,54.4722162401052],[-108.4082127250692,54.47194475609357],[-108.40813049095793,54.47167486008397],[-108.4080311808429,54.47140691807647],[-108.40791493272422,54.471141297071],[-108.40508292899351,54.47114473739165]]],[[[-108.39887427003922,54.44007550891702],[-108.39887475264057,54.44188236204367],[-108.40199187144431,54.441877644690976],[-108.40510913524791,54.441872760338164],[-108.40822641205152,54.44186788598536],[-108.41134368985502,54.44186293063252],[-108.41446096965842,54.44185789527972],[-108.4175782564618,54.44185268892683],[-108.41757561498959,54.44043605482782],[-108.41757496585942,54.440045505800555],[-108.41626396152158,54.44004768594892],[-108.41445812405621,54.44005072015336],[-108.4144571238029,54.43929030610016],[-108.41445542445413,54.43824363702698],[-108.41133918365105,54.438248782379674],[-108.40980597725591,54.43825135955322],[-108.40822278484787,54.43825393273238],[-108.40822252070078,54.43781205670144],[-108.40821945564463,54.43463998447936],[-108.40821754304359,54.43283444235295],[-108.40518656026227,54.43283900669589],[-108.40510267924067,54.43283910070535],[-108.40510265917149,54.432631155690764],[-108.40510154563972,54.43103312457876],[-108.40231685092176,54.43103694789385],[-108.39887271803379,54.43104165928346],[-108.3988730646347,54.4328484304102],[-108.39887340823574,54.434655201536906],[-108.39887374983681,54.43646197266363],[-108.39887408843798,54.438268742790356],[-108.39887427003922,54.44007550891702]]],[[[-108.41462790508446,54.52089769378765],[-108.41463519211257,54.52097599379226],[-108.4146414831404,54.52105432279704],[-108.41464677716799,54.521132677801866],[-108.41465107419532,54.52121105280684],[-108.41465437322242,54.52128944381198],[-108.41465667524925,54.521367846817164],[-108.41465797927584,54.521446257822475],[-108.41465828430219,54.521524672827944],[-108.41465759232825,54.521603086833466],[-108.41465590235407,54.521681494839164],[-108.41465321437957,54.521759894844884],[-108.41464952940488,54.52183827985075],[-108.41464484642992,54.52191664785676],[-108.41463854745669,54.52200147386343],[-108.4146310794831,54.522086267870165],[-108.41462244350929,54.522171024877075],[-108.4146126395351,54.52225573888406],[-108.41460166956061,54.52234040389125],[-108.4145895315858,54.522425014898495],[-108.41457622961066,54.52250956690594],[-108.41456176163517,54.522594054913434],[-108.4145461306594,54.522678471921125],[-108.41452933568327,54.5227628129289],[-108.41451137970687,54.5228470739368],[-108.41449226273008,54.52293124794484],[-108.414471986753,54.523015329953],[-108.41445055277555,54.52309931496128],[-108.41442796179778,54.523183196969725],[-108.4144042148197,54.52326697197826],[-108.4143793148413,54.52335063298687],[-108.4143532628625,54.523434174995664],[-108.4143260598834,54.52351759300454],[-108.41429770790394,54.52360088101361],[-108.41426820992415,54.52368403502273],[-108.41423756594403,54.523767048031985],[-108.41420577896352,54.52384991504137],[-108.41417285098271,54.523932632050865],[-108.41413878400155,54.52401519306049],[-108.41410358002005,54.52409759207023],[-108.41406724203816,54.5241798240801],[-108.41402977205595,54.524261885090056],[-108.4139911710734,54.524343767100106],[-108.41395144409047,54.52442546811031],[-108.41391059110718,54.52450698012062],[-108.41386861712354,54.524588299131054],[-108.41382552313958,54.524669420141585],[-108.41378131215527,54.524750337152234],[-108.41136661199118,54.52911197072998],[-108.4113483629975,54.52914490373435],[-108.41136660300216,54.52914482873227],[-108.41359152357671,54.52914191548001],[-108.41359909057867,54.52914190547915],[-108.41475901987818,54.52914037334762],[-108.41484009189911,54.529140294338426],[-108.41467158382264,54.52904193835068],[-108.41451583774709,54.528936704360994],[-108.41437368867297,54.528825153369304],[-108.41424588660063,54.52870787537561],[-108.41413310853044,54.52858549637984],[-108.41403595846286,54.52845866338205],[-108.41395494939819,54.52832805338212],[-108.41389051033671,54.52819435738005],[-108.41384298727888,54.52805828737596],[-108.41382493021041,54.52786791136476],[-108.4138280001474,54.52767725435108],[-108.41385218008995,54.52748710933512],[-108.4138973740384,54.5272982643168],[-108.41396339099292,54.52711150529633],[-108.41404995995376,54.52692760927369],[-108.41496731467187,54.52537718906164],[-108.4163084676752,54.524351136838106],[-108.41657389461027,54.52395224478027],[-108.41682595054095,54.52355043072369],[-108.41706454146717,54.52314584466844],[-108.41728957738907,54.522738640614556],[-108.41750097430658,54.522328970562015],[-108.41769865421978,54.521916989510885],[-108.41811038901908,54.52099939740024],[-108.41811561757683,54.5196741113072],[-108.41820005556383,54.5195701022904],[-108.41830417355806,54.51947231527177],[-108.41842662955949,54.51938200525157],[-108.41856585656818,54.51930033223015],[-108.41872006858394,54.51922834020764],[-108.41888728560666,54.519166956184435],[-108.41906536063598,54.51911696816077],[-108.41925201067153,54.51907901613698],[-108.41944484071288,54.51905358511336],[-108.4196413787595,54.51904100509019],[-108.41983909981073,54.519041435067834],[-108.42225692553342,54.519332688814245],[-108.42266077970922,54.5195458557834],[-108.42333331610233,54.52020066875286],[-108.42352665130832,54.520666845763486],[-108.42360397774466,54.521910359841456],[-108.42362080886167,54.522246905862985],[-108.42379312595708,54.52239888485407],[-108.42379264378755,54.521892788818846],[-108.42378524736934,54.51467364031619],[-108.42379824275407,54.51282470318568],[-108.42342520963982,54.512771544224215],[-108.42305684652341,54.51270832026156],[-108.42269395240515,54.51263516529755],[-108.42233731928518,54.51255224133215],[-108.42198772316385,54.51245972836531],[-108.42161396301046,54.512290071395796],[-108.42125134485727,54.51211241842449],[-108.4209003747045,54.511927015451256],[-108.4205615395524,54.511734121476174],[-108.42023531340107,54.51153400549918],[-108.41992215025084,54.511326946520185],[-108.41962147507726,54.51104041353426],[-108.41933786890614,54.510748047545974],[-108.41907166673765,54.51045019455532],[-108.41882318057209,54.510147203562305],[-108.41859270240957,54.50983943156693],[-108.41838050425024,54.50952724056921],[-108.41823492511665,54.50924039356563],[-108.41810534798636,54.508950960560135],[-108.4179919038595,54.50865924255258],[-108.41789471373612,54.50836554454314],[-108.41781387661645,54.50807017353163],[-108.41774947750056,54.50777343651823],[-108.41770158438855,54.507475644502875],[-108.41789661227261,54.50697814444607],[-108.4176841966785,54.50536556735754],[-108.41721429522316,54.50436719534102],[-108.4171105089651,54.50367560830448],[-108.41699165970344,54.50298484226972],[-108.41685776643824,54.50229501023673],[-108.41670885116946,54.50160622120545],[-108.41654493989728,54.50091858617602],[-108.41636605862159,54.500232218148334],[-108.41257694264348,54.50023668457765],[-108.4129772110975,54.50427674181451],[-108.41329468725019,54.507478769002134],[-108.41352136607338,54.50976502113605],[-108.4140081988473,54.51469159442482],[-108.4142232576238,54.51684596055075],[-108.4142724948012,54.51733807957952],[-108.41462790508446,54.52089769378765]]],[[[-108.32322879794641,54.507494660195825],[-108.32324284936331,54.51471831070008],[-108.32324958677965,54.52194216120495],[-108.32325409039527,54.526770041542214],[-108.3246898840431,54.524604665228296],[-108.3260103519454,54.523289274986844],[-108.32725294292771,54.52227360277521],[-108.32751074588414,54.521943496722955],[-108.32808407582722,54.52132896261507],[-108.32917475089597,54.520689494446955],[-108.3307509150946,54.520062411224714],[-108.33098635210932,54.5199239321884],[-108.33120855311816,54.51977824215306],[-108.33141687112118,54.51962576811881],[-108.3316106911183,54.51946695508579],[-108.33178944810955,54.51930227105401],[-108.33195261309497,54.51913219902371],[-108.33209971207452,54.51895723599481],[-108.33228300894302,54.51842175593663],[-108.33213931955427,54.51737024087926],[-108.33184293330814,54.516863593877325],[-108.3311546429066,54.51619558190844],[-108.33108807180973,54.51595731589931],[-108.3307895195783,54.51549628790086],[-108.33070127141012,54.51506146388037],[-108.33045213723145,54.5147199298847],[-108.33034264515229,54.51456803688643],[-108.33025336807695,54.514411730885584],[-108.33018482600578,54.514251919882135],[-108.33013741993922,54.51408953487614],[-108.33011141987768,54.5139255198676],[-108.33010698382152,54.513760829856565],[-108.33012413177099,54.51359642184311],[-108.33016276472651,54.51343325182732],[-108.33024969568031,54.51322756880311],[-108.33035534263993,54.513024872776995],[-108.33047940360552,54.51282574074898],[-108.33062152557717,54.512630738719274],[-108.33078130655495,54.51244042068789],[-108.33095828953896,54.5122553266549],[-108.331480086276,54.51106389851246],[-108.33178749523991,54.51071752845345],[-108.3319669631334,54.51025963940106],[-108.33207013283447,54.509284938321194],[-108.33200242669317,54.50891440030287],[-108.33167214645647,54.508461933308574],[-108.33101837609618,54.507890248342534],[-108.33089585399215,54.50767385134121],[-108.33062689786286,54.507495412359106],[-108.33023875465389,54.50717058538029],[-108.3297478584387,54.50690710941738],[-108.3292672682241,54.506637278452814],[-108.32879722601014,54.50636122948667],[-108.32833796679701,54.50607910351886],[-108.3278897245847,54.50579103854937],[-108.3274527253734,54.50549718557825],[-108.32729279724727,54.505243644578584],[-108.32684278899423,54.50483500560086],[-108.32673448185136,54.504491083589016],[-108.3269314737056,54.50390179152542],[-108.32634335855333,54.50390204959194],[-108.32634141321802,54.50289940252193],[-108.32633684633913,54.500270451338324],[-108.32451866586798,54.50026964754384],[-108.32321467853005,54.50026910469126],[-108.32322879794641,54.507494660195825]]],[[[-108.38616202890388,54.4465338608071],[-108.38635432700077,54.44667582579534],[-108.3853746739963,54.44742281995846],[-108.38465079684588,54.447533071048056],[-108.38447700387744,54.4477628020838],[-108.3845706049681,54.44796251708724],[-108.38525642626615,54.44832540903515],[-108.38616586456581,54.44851951694592],[-108.38795105009446,54.448721622758285],[-108.39333056055392,54.448929823164704],[-108.39489412304059,54.44917802500529],[-108.39513980314833,54.44931087898683],[-108.39561594335113,54.44955048994978],[-108.39607969955344,54.449798212914736],[-108.39653066875508,54.45005382988166],[-108.3969684529559,54.45031711685062],[-108.39739266915565,54.45058784282161],[-108.39780294335421,54.4508657707947],[-108.39819891655135,54.45115065576988],[-108.39858024274702,54.45144225074721],[-108.39857682103009,54.44929180959686],[-108.39856437762073,54.44206359909148],[-108.38612293241414,54.44208779849964],[-108.3736789172056,54.44211056090777],[-108.37367742143982,54.448825890379155],[-108.3742124945223,54.44865803530692],[-108.37610687871741,54.447773058030705],[-108.3771952168764,54.447405353881834],[-108.37729772589978,54.447396015869614],[-108.37740147792643,54.44739563185789],[-108.37750418195586,54.447404211846866],[-108.3776035689873,54.44742156383684],[-108.37769745002014,54.44744730782805],[-108.37778375005365,54.44748087282063],[-108.37786056308698,54.447521518814796],[-108.37782060222673,54.44797232285096],[-108.37801860429848,54.44803414283291],[-108.37905216853355,54.44793772770933],[-108.37965684263928,54.44778583363033],[-108.3805764116963,54.44724300048829],[-108.38113882077653,54.44704729841096],[-108.38254430605184,54.446783042233555],[-108.38552383170422,54.44642947687192],[-108.38616202890388,54.4465338608071]]],[[[-108.45235348543734,54.44184676899295],[-108.45562095827883,54.441841753622924],[-108.46177964886482,54.441832223925466],[-108.47423211907197,54.44181600851518],[-108.47422047166178,54.43458804301087],[-108.46172616044473,54.43460587242571],[-108.45860258564029,54.43461010277938],[-108.4554791658358,54.43461426413301],[-108.45235558803121,54.43461842348666],[-108.44923201922654,54.43462241084028],[-108.44922160342736,54.43823773909464],[-108.44922015759396,54.43873926812989],[-108.4492164660275,54.44004418922166],[-108.4523585378368,54.44003950886591],[-108.45235348543734,54.44184676899295]]],[[[-108.32322080109087,54.44191264859454],[-108.33567805831555,54.44191838918788],[-108.33879237712158,54.44191973783619],[-108.3419067039275,54.44192091748449],[-108.34502103273333,54.44192201513271],[-108.34813537153904,54.44192294378094],[-108.3481330969377,54.440116377654306],[-108.34813082533643,54.43830972152758],[-108.34387110923464,54.43830905100873],[-108.34190511172605,54.43830865323079],[-108.34190432112537,54.43650238510393],[-108.3406461607999,54.43650220924606],[-108.33879205332032,54.43650196645543],[-108.33879198018502,54.436095068426845],[-108.33879213772013,54.43469616632847],[-108.33671064918174,54.43469594056356],[-108.33568061391526,54.43469586167992],[-108.3356811724404,54.433266498579364],[-108.33568135531512,54.432889363552796],[-108.33391499985825,54.43288917375225],[-108.33257027351038,54.43288907690411],[-108.33257075029913,54.43225283585932],[-108.33257175091055,54.431082584776924],[-108.32946157910597,54.431082237128116],[-108.32946365850636,54.429275665000766],[-108.32768404004598,54.42927545820173],[-108.32673048979925,54.42927527730937],[-108.32635454970203,54.42927525935183],[-108.32635264506887,54.43038094142984],[-108.32634827790068,54.43288817760669],[-108.32630186188862,54.43288813861196],[-108.32323751809575,54.432887567957906],[-108.32323669821162,54.433237007982605],[-108.3232336306949,54.43469392108541],[-108.32322080109087,54.44191264859454]]],[[[-108.33881437647167,54.47299446701545],[-108.33881608995023,54.477429238326266],[-108.33881654627876,54.47841441039531],[-108.33813743110298,54.47841424647209],[-108.3356966714709,54.478413328747955],[-108.33569709907331,54.480220030874605],[-108.33569769151455,54.481542785967285],[-108.33569782267591,54.48202665000118],[-108.33446761335729,54.48202622214021],[-108.3325775218678,54.48202548135383],[-108.3325778064703,54.48383218048054],[-108.32945750966212,54.483830933833204],[-108.32945781426464,54.48563754495985],[-108.32945809546996,54.48925093821312],[-108.33569981208682,54.489253359507565],[-108.33569958187731,54.488625567463586],[-108.33569939148404,54.487446749380965],[-108.33941108044525,54.48744795596138],[-108.34257011026332,54.48744897760423],[-108.34287415634203,54.487449074569845],[-108.34506144990843,54.48744969232255],[-108.34506125277697,54.487055912294956],[-108.34506045930549,54.485643074196076],[-108.3481810631134,54.485643922843266],[-108.34817591470195,54.47841733533731],[-108.34817477409933,54.4766107132108],[-108.3481733224967,54.47480409308432],[-108.34817220391086,54.4730473669613],[-108.34817217689424,54.4729974699578],[-108.33881437647167,54.47299446701545]]],[[[-108.38613116075591,54.431082750726404],[-108.38094965842393,54.43110332031333],[-108.3799271701611,54.43110738742919],[-108.37992807033645,54.43163405946605],[-108.3799337243765,54.43475775568478],[-108.37993707598393,54.4365815918124],[-108.37763819938101,54.436554979070344],[-108.37367998934275,54.436509107514446],[-108.37368002741499,54.43672631352967],[-108.3736788721455,54.44192985489506],[-108.3861214453536,54.441907061487136],[-108.39856406856049,54.441882888078865],[-108.3985633211562,54.434656909572084],[-108.39856364055353,54.432844758444936],[-108.3985636499509,54.43103260031778],[-108.38613116075591,54.431082750726404]]],[[[-108.35247502208276,54.32544888308126],[-108.36482984026874,54.32544291668831],[-108.37594016513057,54.32542957443494],[-108.3771759694488,54.32542804229551],[-108.37717531304848,54.32118419799568],[-108.3763811818818,54.32129968309334],[-108.37529759653411,54.321092974200866],[-108.37480598333906,54.32088604524168],[-108.37426674606269,54.32046987727301],[-108.37425469296478,54.32018237025406],[-108.37442221885352,54.31971410020206],[-108.37429878770783,54.319368975191615],[-108.37424992067962,54.31932157419376],[-108.37418668264972,54.31928038819799],[-108.37411133061924,54.31924688420407],[-108.37402655058924,54.31922225721192],[-108.3739353625608,54.31920738522115],[-108.37384101953496,54.31920279723144],[-108.37374688251259,54.31920865724244],[-108.3736081884823,54.319225183259285],[-108.37347479245699,54.31925285827628],[-108.37334930443727,54.319291139293135],[-108.37323417642345,54.31933927930951],[-108.37313166041585,54.31939633632508],[-108.37282647645013,54.319738993383744],[-108.37276179853772,54.32005512641334],[-108.37241950357618,54.32043940847912],[-108.37196619157154,54.32077983355427],[-108.37102533540445,54.32100906867654],[-108.37026954420736,54.32100262976127],[-108.36963724990895,54.320592412803514],[-108.36949215177141,54.32028880379844],[-108.36953593072306,54.320108132780724],[-108.36960008768072,54.319929553760836],[-108.36968434364454,54.31975385173895],[-108.3697883266146,54.31958180071506],[-108.36991157959113,54.3194141546893],[-108.37005356057416,54.31925164966182],[-108.3702136465638,54.31909500163266],[-108.37022089449933,54.31889395261763],[-108.3701551644556,54.3188127736193],[-108.36975860534353,54.318783031661916],[-108.36909544224042,54.31898915375123],[-108.36868205412992,54.31897729179698],[-108.36839958797867,54.31873973881204],[-108.36802882870211,54.318190995815],[-108.3677249064558,54.317681820813256],[-108.36786048439221,54.317382961776836],[-108.36888575651136,54.316942330630134],[-108.3699471866788,54.31661981448771],[-108.37031262470647,54.316417822432214],[-108.37042957970684,54.31632739841263],[-108.3705324687017,54.316231309394226],[-108.37062049969111,54.31613030037716],[-108.37069298367513,54.316025153361565],[-108.37074936065386,54.31591668434754],[-108.37078919262757,54.31580573733521],[-108.37081217259637,54.31569317032469],[-108.37081823758004,54.31563876032014],[-108.37080444255866,54.31558483531791],[-108.37077141653336,54.315533843318015],[-108.37072065750515,54.3154881013205],[-108.37065447147546,54.31544968732521],[-108.3705758664455,54.315420345332],[-108.37048841141667,54.3154014093405],[-108.37011314630827,54.315366198380296],[-108.36982547424547,54.31540067741518],[-108.36953472917841,54.31542478944966],[-108.3692420031074,54.315438444483604],[-108.36894839803274,54.31544159051695],[-108.36865501295462,54.31543421554948],[-108.36836295187341,54.315416349581135],[-108.3673347335457,54.31522694968361],[-108.36720017949467,54.31517744669525],[-108.36707658344355,54.31511898670508],[-108.36696568339299,54.31505238971285],[-108.36686903234371,54.314978592718504],[-108.36678798929647,54.314898628722034],[-108.36672369025182,54.31481362272325],[-108.3666770392105,54.314724766722236],[-108.36664869117305,54.31463330871892],[-108.36663904313998,54.31454053171347],[-108.36664823111172,54.31444773970585],[-108.36671801610356,54.314368217692405],[-108.36680425910149,54.3142944216774],[-108.36690560610556,54.31422750966129],[-108.36702046511574,54.31416852964417],[-108.36714703513184,54.314118409626346],[-108.36728332915366,54.314077934608115],[-108.36742721018081,54.31404774058979],[-108.36757641721289,54.314028300571586],[-108.3677286102494,54.314019920553854],[-108.36826563938514,54.31401155049275],[-108.36889229657515,54.31409763642822],[-108.3696244818265,54.31428715635911],[-108.37020874499444,54.31433951829692],[-108.37038879404322,54.31434661027716],[-108.37056914908858,54.31434308425659],[-108.37074798413003,54.314328972235415],[-108.37092348716725,54.31430441921389],[-108.37109387819972,54.31426967519222],[-108.3712574312272,54.31422509017068],[-108.37139199523332,54.31413836214935],[-108.37151596923499,54.31404639812888],[-108.37162875723214,54.31394963510935],[-108.37172982022493,54.31384854109081],[-108.37181867221322,54.313743599073355],[-108.37189488719717,54.313635313057105],[-108.37184663311122,54.31341229504679],[-108.3719050710959,54.313320060033675],[-108.37167780796469,54.3130998920437],[-108.3709686877162,54.31290090810955],[-108.36981660442352,54.31291435824032],[-108.36930342123658,54.31274884028648],[-108.36825083089224,54.31252789738944],[-108.36665905314821,54.311516189497254],[-108.36648782404323,54.311331669503495],[-108.36576774373437,54.310958089558184],[-108.36479070148276,54.31095929466842],[-108.35708881849902,54.31096846953685],[-108.35722573663227,54.31126562154248],[-108.3576855618163,54.31146401550471],[-108.35784308093433,54.311698955503566],[-108.35781217095065,54.311772778512314],[-108.35776253496104,54.311843021522876],[-108.35769531396512,54.31190807253501],[-108.35761205096287,54.311966435548534],[-108.35751465795435,54.31201677056308],[-108.3574053749397,54.312057921578315],[-108.35728671091934,54.31208894159388],[-108.35716139089361,54.312109119609424],[-108.35703229486326,54.31211799262461],[-108.3569023888289,54.312115355639044],[-108.35529651433853,54.31188454980365],[-108.35469713712375,54.31170207285826],[-108.35415174691809,54.311505034905764],[-108.35373469163494,54.310972400915084],[-108.35240829329321,54.3109738650646],[-108.35244165268351,54.31819960457218],[-108.35247502208276,54.32544888308126]]],[[[-108.3989223314036,54.47115192708913],[-108.39891633981458,54.47838446859602],[-108.39891030422679,54.48561701110269],[-108.39889697163831,54.492849478609955],[-108.39888550604796,54.50007128211605],[-108.41134772426578,54.5000574537043],[-108.41185277039533,54.50005430864691],[-108.41138198669005,54.49531535836908],[-108.41115512486617,54.49302496623475],[-108.41113932880826,54.49286370322527],[-108.41091669500096,54.49061915109357],[-108.4109048899603,54.49050651108703],[-108.41089191391934,54.490393915080624],[-108.41087776787809,54.49028136707436],[-108.41086245183654,54.49016887106824],[-108.41084596679471,54.490056431062236],[-108.41082831375263,54.48994405105641],[-108.41080949271029,54.48983173505068],[-108.4107895046676,54.48971948704511],[-108.41076835062466,54.48960731203964],[-108.41074603058149,54.489495214034335],[-108.410722546538,54.48938319602919],[-108.41069789749425,54.48927126302412],[-108.41067208645022,54.48915941901921],[-108.41064511340592,54.489047668014486],[-108.4106169793614,54.488936014009866],[-108.41058768531656,54.488824461005365],[-108.41055723227144,54.48871301300104],[-108.4105256212261,54.488601674996815],[-108.41049285418049,54.48849044999274],[-108.41045893213462,54.48837934198881],[-108.41042385508848,54.48826835598504],[-108.41038762604211,54.48815749598139],[-108.41035024499544,54.48804676497787],[-108.41031171394859,54.4879361679745],[-108.40951054998804,54.48567971190742],[-108.40948302995496,54.485601904905124],[-108.40720440621807,54.479166983712986],[-108.40692679988493,54.47838367068959],[-108.40482993636796,54.47246357651258],[-108.4043626518076,54.471145597473196],[-108.3989223314036,54.47115192708913]]],[[[-108.38037746534525,54.32261144673557],[-108.38031234636637,54.32272630775103],[-108.38026453839284,54.32284403976472],[-108.38023440442457,54.322963753776556],[-108.38022217146126,54.3230845457865],[-108.38022793250268,54.323205502794366],[-108.38025164454842,54.32332570980021],[-108.38034455069095,54.32368499881513],[-108.38042315972677,54.32373214280961],[-108.3804907557616,54.32378479880569],[-108.38054621879478,54.32384209480351],[-108.38058862882583,54.32390308180302],[-108.38061728485427,54.323966747804306],[-108.38063170887949,54.3240320378073],[-108.3813354002035,54.324463875758475],[-108.3821763887364,54.32542156473129],[-108.38418452125346,54.32541894250474],[-108.38411430508813,54.324972761481106],[-108.38426262888449,54.324239834412595],[-108.38421646284897,54.32416829741275],[-108.38418502581642,54.32409408141109],[-108.3841687547872,54.32401821840755],[-108.38416787376174,54.323941762402214],[-108.3841823967404,54.3238657783952],[-108.38421211972347,54.323791321386615],[-108.38425663371126,54.323719428376485],[-108.38408424653657,54.323324892368056],[-108.38416864052097,54.32321159335057],[-108.38423453249924,54.32309417533485],[-108.38428134847155,54.322973670321005],[-108.38430867543816,54.32285113330931],[-108.38431627539937,54.322727639299735],[-108.38453512540046,54.32255984226318],[-108.38465742941425,54.32250601824557],[-108.38478796043246,54.322459260227554],[-108.384925527455,54.32241999520927],[-108.3850688754816,54.32238858119091],[-108.38521669651202,54.32236530417257],[-108.38536764054605,54.3223503771545],[-108.38616565077935,54.32243377607044],[-108.38696095911288,54.32282296600829],[-108.38774708655556,54.323550268971005],[-108.38783985163478,54.32371778297237],[-108.38934719335917,54.32473510287429],[-108.38983101354374,54.32491634983255],[-108.39005453261596,54.32496058081048],[-108.39027203768973,54.32501408578971],[-108.39048240276459,54.32507658877044],[-108.39068453984025,54.325147766752664],[-108.39087740491618,54.325227250736496],[-108.39105999899212,54.325314630722104],[-108.3912313800676,54.32540945370947],[-108.39655729743843,54.32540202110841],[-108.39738670543247,54.3247359639678],[-108.39814388757851,54.32458699787191],[-108.39868484374529,54.324669728816765],[-108.39902779989521,54.324856098791244],[-108.39911449498642,54.325064738796186],[-108.39897907706175,54.325398606835016],[-108.4015715877289,54.32539485754241],[-108.40218948088786,54.325393912472656],[-108.40217208249787,54.31816495196415],[-108.4021548251091,54.31093588945535],[-108.38981871793051,54.31094019784631],[-108.3774825077507,54.310943053236954],[-108.37748388513876,54.31818467574888],[-108.37748436899096,54.32076798293138],[-108.37776574702954,54.32066510589243],[-108.37805577407325,54.32057079385303],[-108.3783536851219,54.3204852928134],[-108.37865869817533,54.32040882977365],[-108.37897001523346,54.32034160273382],[-108.37928681429605,54.320283789694],[-108.37960826336305,54.32023554365435],[-108.37987837143123,54.320231046623555],[-108.38014834450307,54.320237728593646],[-108.38041683557816,54.3202555565646],[-108.38068249665623,54.320284439536714],[-108.3809439987368,54.32032423451006],[-108.38104996276559,54.3203286454984],[-108.38115330079701,54.320343039487774],[-108.38125128283019,54.320367033478426],[-108.38134131686427,54.32039999547058],[-108.38142102089834,54.32044105246453],[-108.38148828893155,54.320489117460326],[-108.38158627998301,54.32056846545489],[-108.3816694050325,54.32065341345152],[-108.38173673607938,54.320743014450265],[-108.38178752212326,54.32083626745112],[-108.38182119316355,54.320932131454086],[-108.38183737819985,54.32102953745916],[-108.38183589323177,54.321127398466274],[-108.38181675625893,54.32122462147525],[-108.381780178281,54.32132012248616],[-108.38037746534525,54.32261144673557]]],[[[-108.39888684910957,54.44929010056168],[-108.39889913490268,54.451662241726574],[-108.40177781843154,54.45401934356624],[-108.40424646589912,54.456510001461545],[-108.40457790409367,54.45683695744695],[-108.40489721228646,54.45716798843405],[-108.40520423847741,54.457502940422735],[-108.40549884066638,54.457841658413166],[-108.40578088485329,54.45818398740523],[-108.40605023903811,54.458529768399],[-108.40600326114627,54.45889079542959],[-108.40466295114969,54.45994030565471],[-108.40407586027322,54.460766250778946],[-108.4041075144085,54.46114756880208],[-108.40431307251208,54.46129904778944],[-108.40473666161753,54.461287077740685],[-108.40536303566114,54.460932161644976],[-108.40662820164647,54.4599071914301],[-108.40805358185149,54.45941722823456],[-108.41093625739671,54.45881849386656],[-108.41135107649963,54.458805682818756],[-108.41327888295739,54.45868464159223],[-108.41364517197363,54.458449454534275],[-108.41434187685485,54.457552891392716],[-108.41565451684099,54.45649378417008],[-108.41583777084396,54.45636051514],[-108.41600585784074,54.45622062411119],[-108.41615807583148,54.45607469408373],[-108.41629378781607,54.455923339057826],[-108.41641242579469,54.45576718903345],[-108.4165134927674,54.45560689701076],[-108.41659656973428,54.45544313498989],[-108.41717678573636,54.45499951789322],[-108.41901510484927,54.45391318360923],[-108.41922721782713,54.45368233456904],[-108.41906690430046,54.45222567148515],[-108.41930634024023,54.45185911543243],[-108.41977483222945,54.45146362335174],[-108.42149731531354,54.45038055008105],[-108.42380672860092,54.449452684754846],[-108.42380706653428,54.449252300740795],[-108.42380830393263,54.447444949614045],[-108.4238096923311,54.44563760048731],[-108.42381098774655,54.44388104436406],[-108.4238110717297,54.44383034136051],[-108.42367068669353,54.44383060037644],[-108.42069458092669,54.44383554671337],[-108.42069521937078,54.44216537059626],[-108.42069532532518,54.44202827158661],[-108.42056559229175,54.442028485601305],[-108.41757802752188,54.44203347693953],[-108.41446104071865,54.442038600292356],[-108.41134374691521,54.44204363564518],[-108.39887506270081,54.442063073056325],[-108.39888684910957,54.44929010056168]]],[[[-108.34047529204824,54.39822134457146],[-108.32808019184607,54.39822667297064],[-108.328152356256,54.405439476470754],[-108.32822870971144,54.412782358979335],[-108.34062532291291,54.41277134557913],[-108.35302228311338,54.41275923717863],[-108.35294625568041,54.405486181675386],[-108.3528704162492,54.398214742171966],[-108.34047529204824,54.39822134457146]]],[[[-108.33879171643719,54.42782573484543],[-108.3387919039192,54.429276511947435],[-108.3448209434782,54.42927658726653],[-108.34811973933114,54.429276439893975],[-108.34811760673031,54.427469793767145],[-108.34814456133834,54.42024718225619],[-108.34817158492318,54.41295084473979],[-108.33572836971022,54.412962244145426],[-108.32823051177367,54.41296859099223],[-108.32329349549832,54.41297264254978],[-108.3232736389033,54.42023518806342],[-108.32326733450196,54.422043469191465],[-108.3232613351008,54.423851756319394],[-108.3232550246996,54.42566003544741],[-108.32324871129848,54.42746831557537],[-108.32486756471732,54.42746855039262],[-108.32635737310272,54.42746879222443],[-108.32636375650358,54.42565970709635],[-108.32975080237948,54.42565922471394],[-108.3325810781113,54.425658716394295],[-108.33257996921787,54.42598063841709],[-108.33257454371106,54.42746959352247],[-108.33568321951508,54.42746974117141],[-108.3376377580205,54.427469813950715],[-108.33879173731899,54.42746989582039],[-108.33879171643719,54.42782573484543]]],[[[-108.42067769742992,54.4333419719798],[-108.4206807518554,54.43461845806893],[-108.42379611865793,54.4346128767163],[-108.42379185605674,54.43280927059034],[-108.42379158601872,54.43269517858238],[-108.42378887061896,54.43149574649857],[-108.42378774545566,54.43100566646433],[-108.42378363385465,54.429202062338355],[-108.42377936425372,54.42739845421238],[-108.42377799864964,54.42558295008518],[-108.42377632804549,54.423767349958034],[-108.42377495744162,54.42195184583086],[-108.42377357483768,54.42013624970362],[-108.42377189123384,54.41832074657644],[-108.42377139599948,54.41761590352705],[-108.4237709477911,54.41698918548314],[-108.42377052363011,54.4165050614492],[-108.42376914402647,54.41468955532192],[-108.42376761242289,54.4128739551947],[-108.42065588862086,54.412877258546594],[-108.41754446981886,54.41288057889848],[-108.41443290401673,54.412883726250364],[-108.41132134121452,54.41288679260219],[-108.40821013141216,54.4128893379539],[-108.40509891960966,54.41289162230561],[-108.40198800680729,54.41289401265732],[-108.39887679400465,54.412896235008986],[-108.39887609060779,54.41471269813667],[-108.39887569221108,54.41652915826429],[-108.3988751318144,54.41834571339193],[-108.39887441941778,54.42016217451959],[-108.3988740080213,54.42197873164717],[-108.40010405633859,54.421977529508055],[-108.40509900262676,54.42197246594326],[-108.40509896902314,54.42015617181574],[-108.40821139782578,54.42015309846375],[-108.40821104622228,54.418337158336335],[-108.4113230260247,54.41833408698444],[-108.41754761862944,54.41832753628046],[-108.41754801697739,54.41937408835384],[-108.41754855423311,54.42014321440778],[-108.41443596443071,54.42014652575982],[-108.41443689703449,54.42196247488713],[-108.4126181975656,54.42196447809287],[-108.41132416023198,54.4219658832392],[-108.41132451650834,54.42279712029749],[-108.41132463883577,54.42378191436657],[-108.40813451501316,54.423785389727406],[-108.40509904023043,54.42378867007071],[-108.40509896243803,54.42742116332564],[-108.40510025503882,54.42922714445224],[-108.40755695467224,54.42922406417432],[-108.40821418384168,54.42922319709998],[-108.40821447598043,54.429640252129175],[-108.4082159464426,54.43102873622643],[-108.4113303602454,54.43102434887406],[-108.41133148658747,54.432052046945984],[-108.41133243484636,54.4328295340004],[-108.41500967479374,54.43282305458423],[-108.42067695725423,54.43281450094291],[-108.42067769742992,54.4333419719798]]],[[[-108.3861239877164,54.412911762450854],[-108.37812807365313,54.4129181113545],[-108.37367751050516,54.41292340885754],[-108.37367965093773,54.42024686037215],[-108.37368184733971,54.42747455787969],[-108.3736817946278,54.42834139494058],[-108.37368138594016,54.4292814960067],[-108.38613284214962,54.42925776659809],[-108.38924399795134,54.429251642246044],[-108.38924249646213,54.42778134614301],[-108.38924220634625,54.427432966118594],[-108.39062584370247,54.427429318961956],[-108.39545681294616,54.427416626415116],[-108.39545654734746,54.425615697288706],[-108.39856407114384,54.42559693993623],[-108.39856433154176,54.423785504809004],[-108.39856436726477,54.42295193675046],[-108.3985644359398,54.42197406568183],[-108.39856452233788,54.420162625554646],[-108.39856695792479,54.412896589044024],[-108.3861239877164,54.412911762450854]]],[[[-108.41134777332618,54.50023815671688],[-108.39888565410841,54.50025198812865],[-108.39889584552944,54.50748718763305],[-108.39891046894566,54.5147009221352],[-108.39891610736804,54.521936437639646],[-108.39893581178887,54.529152526140955],[-108.41060770280603,54.52914533681825],[-108.41133899154657,54.52780559764198],[-108.41310919493927,54.52462451421963],[-108.4131498509249,54.52455016320981],[-108.4131895259102,54.524475632200115],[-108.41322821789521,54.52440092719056],[-108.4132659238799,54.52432605218106],[-108.41330264286425,54.52425101117167],[-108.41333837184831,54.52417580816238],[-108.41337310783209,54.524100448153156],[-108.41340685081549,54.5240249361441],[-108.41343959779867,54.523949275135074],[-108.41347134678152,54.52387347112619],[-108.41350209576402,54.52379752711739],[-108.41353184374627,54.52372144910877],[-108.41356058772816,54.52364524010015],[-108.41358832770977,54.52356890509173],[-108.4136150606911,54.523492448083346],[-108.4136407846721,54.52341587507509],[-108.41366549965286,54.523339190066906],[-108.41367125964709,54.5233175950648],[-108.41367693964133,54.52329599406264],[-108.41368254063555,54.5232743850605],[-108.41370641061484,54.52319403605217],[-108.41372917359378,54.523113578044025],[-108.41375082857243,54.52303301703595],[-108.41377137355073,54.522952357027954],[-108.4137908065287,54.52287160402016],[-108.41380912650641,54.52279076301244],[-108.41382633348375,54.522709840004815],[-108.4138424254608,54.52262883899739],[-108.41385740143754,54.52254776499],[-108.41387126041394,54.522466624982805],[-108.41388400139007,54.52238542197566],[-108.41389562436586,54.522304162968666],[-108.41390612734135,54.52222285196182],[-108.41391551031657,54.5221414939551],[-108.41392377329144,54.52206009594846],[-108.41393091526605,54.52197866194199],[-108.41393693524034,54.521897196935626],[-108.41394183321431,54.5218157059294],[-108.41394560918798,54.52173419592324],[-108.41394826316139,54.521652669917295],[-108.41394979413448,54.521571134911426],[-108.4139502021073,54.52148959490571],[-108.41394948707983,54.52140805590009],[-108.41394765005205,54.52132652289459],[-108.41394469002402,54.52124500088923],[-108.41394060799566,54.52116349488404],[-108.41393540396706,54.52108201087892],[-108.41392907793815,54.52100055387393],[-108.41392163090899,54.52091912886914],[-108.4133727009147,54.51538414754507],[-108.41330403266527,54.51469177250456],[-108.41299170053092,54.5115423393201],[-108.41281739589786,54.50978448521711],[-108.41258771706747,54.50747898108217],[-108.41227258492296,54.504299647895856],[-108.411870058461,54.50023752165771],[-108.41134777332618,54.50023815671688]]],[[[-108.35155200844753,54.42996562755471],[-108.3515534678214,54.43108944763356],[-108.36091843424852,54.43110781457693],[-108.36403994605736,54.43111371222467],[-108.36403632745123,54.42929291809719],[-108.37337142186018,54.42928188204176],[-108.37337182954548,54.42833467897516],[-108.37337191925965,54.42747457591476],[-108.37336979285769,54.42024688840714],[-108.37336766942525,54.41292379589256],[-108.3609245372148,54.41293780529888],[-108.34848126500319,54.412950608704804],[-108.34845402541728,54.420243974221016],[-108.3484271778106,54.427470542732266],[-108.34842967841126,54.42927648685898],[-108.35155105921947,54.42928000050661],[-108.35155200844753,54.42996562755471]]],[[[-108.32946474436125,54.503900418238835],[-108.32870869616555,54.50390085132435],[-108.32855224927555,54.50435150437363],[-108.32876847156429,54.50504842339799],[-108.32918442577478,54.505356151372496],[-108.3299844780838,54.50566100930335],[-108.33074633342996,54.50610660824837],[-108.33104897952974,54.50617080321863],[-108.33171383681672,54.5065144781675],[-108.33204895696934,54.5067114571434],[-108.33301706548201,54.50749565608881],[-108.33319393557755,54.50764464907921],[-108.33335622067125,54.50779916107167],[-108.33350341176265,54.50795870906619],[-108.33363505085153,54.508122795062825],[-108.33375072493767,54.508290906061504],[-108.33385007102073,54.50846251606229],[-108.33393278110044,54.50863708906512],[-108.33399859317662,54.50881407907008],[-108.33390613140669,54.5095744271338],[-108.33333560366898,54.51080164028423],[-108.33304937499115,54.511987818399646],[-108.33291827300924,54.512143515425336],[-108.3328054230336,54.51230398044936],[-108.3327113320642,54.51246848847153],[-108.33263642510089,54.512636299491724],[-108.33258103914349,54.51280665750991],[-108.33254542519177,54.512978793526],[-108.33269388833926,54.51330508353203],[-108.3328229016661,54.51418312057888],[-108.33293215872072,54.51426180357206],[-108.33302925277391,54.51434571156691],[-108.33311344882529,54.51443420956359],[-108.33318410887449,54.51452663056204],[-108.33324069892109,54.514622274562356],[-108.3332827929648,54.51472041656446],[-108.33365807317202,54.51504962454503],[-108.3340527766789,54.516260292585095],[-108.33401952571627,54.516397785598485],[-108.33400573675902,54.51653640060977],[-108.33401150380693,54.51667520861881],[-108.33403678785963,54.51681327462564],[-108.33408142091675,54.516949672630126],[-108.3339853260103,54.517304018665804],[-108.33409782112696,54.51756586167135],[-108.33406089915596,54.51768120868362],[-108.33404030018967,54.51779792669413],[-108.33403616622782,54.51791523270279],[-108.33404852127015,54.51803234270957],[-108.33407728131643,54.51814847471445],[-108.33412225936632,54.518262850717356],[-108.3341831524195,54.51837470471831],[-108.3340529784295,54.5185054797422],[-108.33393656544452,54.51864057476484],[-108.33383433846444,54.5187794997861],[-108.33374666548931,54.51892175280595],[-108.33367386751893,54.519066815824324],[-108.33361620455325,54.519214165841184],[-108.33267808160726,54.52010245800949],[-108.33250866064786,54.520355222046334],[-108.3322247916453,54.52056748309331],[-108.33192933763792,54.52077432514122],[-108.33162260362573,54.520975535190004],[-108.33130490660875,54.521170905239586],[-108.33097657358701,54.521360230289986],[-108.33063794556051,54.52154331834113],[-108.33016754657274,54.52194436142242],[-108.32976870659151,54.522309493493054],[-108.32875090252675,54.522904449649886],[-108.32837459153404,54.52321774271435],[-108.32831274656496,54.523358152731184],[-108.32757263755074,54.52388918485206],[-108.32672756363394,54.5247926070109],[-108.32587362266898,54.52555900416114],[-108.32547979778907,54.526223243252176],[-108.32511812080635,54.5265551013163],[-108.32515135683042,54.526601171315754],[-108.3251706758517,54.526649852316986],[-108.3251755198696,54.52669973431991],[-108.3251657468837,54.52674937232449],[-108.32514164089349,54.52679732633053],[-108.32510389989874,54.526842207337964],[-108.3245078929013,54.52731167043823],[-108.32448168892512,54.52740313444764],[-108.32444065094445,54.52749273445852],[-108.32438515195909,54.527579658470906],[-108.32431569496902,54.52766311948457],[-108.32423290797406,54.527742361499506],[-108.32413754197422,54.5278166665155],[-108.3232550779581,54.5284519646598],[-108.32325583219705,54.529165804709656],[-108.33574035043351,54.52917096429723],[-108.34822490366871,54.52917473588449],[-108.34821334224821,54.52194832838064],[-108.34820127982886,54.51472189287662],[-108.3481963024125,54.50749543537161],[-108.34819233460361,54.502083397993296],[-108.34675971923282,54.502083713155336],[-108.3419488889876,54.502084653699605],[-108.3419506755921,54.50389317482607],[-108.34070503626987,54.503894015967006],[-108.33882926478452,54.503895128179266],[-108.338828209495,54.50302898711872],[-108.33882507757457,54.500275101926235],[-108.33835921145386,54.50027495497892],[-108.33570321176583,54.50027400427927],[-108.33564482475073,54.50027397528589],[-108.332581035957,54.500272899632286],[-108.33258299439235,54.5015751837233],[-108.33258366756303,54.50208584975901],[-108.3308682301188,54.50208596295303],[-108.32946187875463,54.50208611311211],[-108.32946288694896,54.502667262152656],[-108.32946474436125,54.503900418238835]]],[[[-108.36092492941363,54.48565120940245],[-108.36092216261846,54.489263967655795],[-108.35788441583188,54.48926246599926],[-108.35788626403843,54.49287595525212],[-108.35788729760033,54.49455841036976],[-108.35788733564185,54.494682747378455],[-108.35773645160276,54.49468260339556],[-108.35475746183126,54.494680964732424],[-108.35475855343473,54.49648766785878],[-108.35162885262399,54.496485809212665],[-108.35162996322752,54.49829242433906],[-108.34850012741673,54.49829048269291],[-108.34850127180671,54.499457718774515],[-108.34850185702045,54.50009729281923],[-108.36091374723586,54.500105365415635],[-108.37332567944993,54.50011198201174],[-108.37334202204046,54.49288449550421],[-108.37335834463212,54.48565681199649],[-108.3733602382213,54.47842925749018],[-108.3733614215396,54.4733853191367],[-108.37336155141405,54.473008629110296],[-108.37210706208944,54.47300824325219],[-108.3702516686094,54.47300757546193],[-108.37025182337113,54.47229277041185],[-108.37025187700709,54.47120072233529],[-108.36736641426045,54.47119960466151],[-108.36403316439787,54.47119840203839],[-108.36092157259257,54.47119715939009],[-108.35781554378866,54.47119577774118],[-108.35455500994465,54.471194267109716],[-108.35159129517746,54.471192866444675],[-108.35159182549765,54.472153305512],[-108.35159245777977,54.4729992185712],[-108.34848244697453,54.47299751092269],[-108.34848635678243,54.478417740302284],[-108.3484902845908,54.48383734568168],[-108.35034058907003,54.483838500472515],[-108.36092448181071,54.48384443027596],[-108.36092492941363,54.48565120940245]]],[[[-108.36553685199661,54.38758079399334],[-108.35314812877371,54.3875119363867],[-108.35315858692697,54.39098432863016],[-108.35318013332925,54.398214586136994],[-108.35325613476066,54.40548674764043],[-108.35333225919335,54.41275890514359],[-108.36572895239244,54.41274539474277],[-108.3781256575903,54.41273070034159],[-108.37803667813891,54.40541463283724],[-108.37795476272039,54.39818834533812],[-108.37793462731892,54.39096177483182],[-108.3779253592183,54.387648463599625],[-108.36553685199661,54.38758079399334]]],[[[-108.37367054030162,54.47842941345509],[-108.3736688407125,54.485656971961376],[-108.37365259312082,54.49288456646906],[-108.37363614453031,54.500112149976616],[-108.38610548174971,54.50009271056407],[-108.3985748429678,54.50007181415125],[-108.39858656355796,54.49284929664507],[-108.39859990614671,54.48561754713788],[-108.39860599573451,54.47838500563118],[-108.39861203032368,54.471152644124274],[-108.38614209610846,54.47117784453658],[-108.38605317708551,54.47117799754666],[-108.38302465030443,54.47118396688961],[-108.38302389790685,54.472991252016314],[-108.37990647610279,54.47299720536931],[-108.37990620338617,54.47384731842889],[-108.37990589770526,54.474804405495966],[-108.37678866490099,54.47481001484891],[-108.37678884161686,54.473957840789204],[-108.3767892152986,54.473002992722286],[-108.37367181749428,54.47300869607525],[-108.37367177264444,54.4734590181068],[-108.37367054030162,54.47842941345509]]],[[[-108.31046360622422,54.50026060413245],[-108.29803146100096,54.50025444453752],[-108.29806035740195,54.50742490203704],[-108.2980892518228,54.514651282540186],[-108.29810002324027,54.52187778104525],[-108.29811045165876,54.52910418455009],[-108.3105279758888,54.52913706514766],[-108.32023784241274,54.52915915105066],[-108.32172521748265,54.52821573981635],[-108.3219570894859,54.52804596777823],[-108.32217784348468,54.52787125574106],[-108.3223871704789,54.52769184770481],[-108.32258477246863,54.52750799866959],[-108.32277037345384,54.527319964635424],[-108.32294371343455,54.5271280136024],[-108.32293884069888,54.52194132024006],[-108.32293230628267,54.51471757273518],[-108.32291831586568,54.50749382423091],[-108.32290422544958,54.50026890672635],[-108.31046360622422,54.50026060413245]]],[[[-108.36091432929635,54.50028608242824],[-108.3485017830808,54.500277995831894],[-108.34850312468492,54.50208596595833],[-108.34850682449289,54.507495389336505],[-108.3485118659093,54.51472193784146],[-108.34852413732872,54.521948376345456],[-108.3485355997492,54.52917478184929],[-108.36098263496781,54.529160508439276],[-108.37341900918265,54.529145619030196],[-108.37341434776278,54.52191806252596],[-108.37340917834396,54.51469056902153],[-108.37336781591706,54.50746310052102],[-108.37332679451058,54.50029271002423],[-108.36091432929635,54.50028608242824]]],[[[-108.38610617481028,54.500273428576655],[-108.37363726159097,54.500292868989135],[-108.37367837799731,54.50746263048587],[-108.37371979642421,54.514690099986375],[-108.37372501484302,54.521917684490724],[-108.37372973026295,54.52914524099501],[-108.3861648674861,54.5291585905878],[-108.3986000477081,54.529170751180224],[-108.39859787028726,54.52194104867603],[-108.39859518986758,54.5147113201716],[-108.39858517244905,54.50748699966821],[-108.39857514402826,54.500252523163866],[-108.38610617481028,54.500273428576655]]]]},"properties":{"ADMIN_LAND_ID":"06603","SHORT_NAME":"WATERHEN LAKE INDIAN RESERVE NO. 130","FIRST_NATIONS":"Waterhen Lake"}}]}
