{"type":"FeatureCollection","features":[{"type":"Feature","id":"way/244267621","geometry":{"type":"LineString","coordinates":[[-108.3942249,54.4667218],[-108.3940276,54.466742],[-108.3939775,54.4667542],[-108.3939356,54.4667711],[-108.3938952,54.4667927],[-108.3938047,54.4668584],[-108.3937535,54.4668906],[-108.3937202,54.4669123],[-108.3936878,54.4669328],[-108.3936535,54.4669516],[-108.3936192,54.4669687],[-108.393582,54.4669852],[-108.3935398,54.4670023],[-108.3934986,54.4670177],[-108.3934604,54.4670331],[-108.393431,54.4670462],[-108.3934065,54.4670604],[-108.3933898,54.4670786],[-108.3933849,54.4670997],[-108.3933859,54.4671191],[-108.3933947,54.4671385],[-108.3934143,54.4671516],[-108.3934408,54.4671607],[-108.3934702,54.4671664],[-108.3935045,54.4671698],[-108.3935408,54.4671727],[-108.3935722,54.4671715],[-108.3936173,54.4671692],[-108.3936604,54.4671647],[-108.3937075,54.4671601],[-108.3937427,54.4671556],[-108.39378,54.4671527],[-108.3938251,54.4671504],[-108.3938751,54.4671493],[-108.3939427,54.4671499],[-108.394028,54.4671527],[-108.3941476,54.467155],[-108.3941957,54.4671561],[-108.3942388,54.4671578],[-108.3942888,54.4671596],[-108.3943447,54.467163],[-108.3943986,54.4671681],[-108.3944486,54.4671744],[-108.3944976,54.4671818],[-108.3945614,54.4671949],[-108.3946476,54.467212],[-108.3947173,54.4672291],[-108.3947741,54.4672427],[-108.3948339,54.4672593],[-108.3949408,54.4672715]]},"properties":{"highway":"track","surface":"dirt","tracktype":"grade3","osmId":244267621,"osmType":"way","sourceUrl":"https://www.openstreetmap.org/way/244267621"}},{"type":"Feature","id":"way/244432488","geometry":{"type":"LineString","coordinates":[[-108.4137037,54.5153865],[-108.4129252,54.5155596],[-108.4126824,54.5156128],[-108.4124768,54.515661],[-108.4122875,54.5157013],[-108.4121004,54.5157374],[-108.411888,54.5157683],[-108.4116594,54.5157937],[-108.4114215,54.5158179],[-108.4109435,54.5158514],[-108.4105994,54.5158688],[-108.4102985,54.5158791],[-108.4100121,54.5158823],[-108.4097395,54.5158775],[-108.4095418,54.5158608],[-108.4093132,54.5158299],[-108.4090453,54.5157844],[-108.4088144,54.5157361],[-108.4086066,54.5156892],[-108.4084033,54.5156356],[-108.4080777,54.5155525],[-108.4078669,54.515491],[-108.4076291,54.5154058],[-108.4075459,54.5153668],[-108.4073249,54.5152535],[-108.4071824,54.5151738],[-108.4071309,54.515145],[-108.4069762,54.5150484],[-108.4065975,54.514787],[-108.4064428,54.5146852],[-108.406258,54.5145645],[-108.4060502,54.5144345],[-108.4057408,54.5142455],[-108.4054914,54.5141061],[-108.4048656,54.5137589],[-108.4041659,54.5133715],[-108.4036879,54.5131154],[-108.4035124,54.5130242],[-108.403353,54.5129532],[-108.4031614,54.5128754],[-108.4029443,54.5127923],[-108.4027411,54.5127199],[-108.4025563,54.5126623],[-108.4023462,54.5125979],[-108.4021407,54.5125457],[-108.4018728,54.512484],[-108.4016372,54.5124344],[-108.4014248,54.5123902],[-108.4012008,54.5123459],[-108.400993,54.5123097],[-108.4007874,54.5122708],[-108.4006327,54.512232],[-108.4004711,54.5121891],[-108.4003187,54.5121368],[-108.4001686,54.5120791],[-108.4000069,54.5120027],[-108.3998707,54.5119317],[-108.3997252,54.5118499],[-108.3995936,54.5117748],[-108.3994619,54.5117091],[-108.3993303,54.5116569],[-108.3991997,54.5116185],[-108.3990541,54.5115867],[-108.3989432,54.5115659],[-108.3988312,54.5115509],[-108.3987181,54.5115392],[-108.3986061,54.5115347],[-108.3984896,54.511534],[-108.3983855,54.5115321],[-108.3982746,54.5115392],[-108.3981637,54.5115516],[-108.3980585,54.5115672],[-108.3976564,54.5116452],[-108.3972924,54.5117271],[-108.3971289,54.5117629],[-108.3969766,54.5117915],[-108.3968254,54.5118155],[-108.3966697,54.5118331],[-108.3965342,54.5118435],[-108.3963864,54.5118519],[-108.3962218,54.5118584],[-108.3960236,54.5118591],[-108.3957615,54.5118552],[-108.3954546,54.5118461],[-108.3952967,54.5118415],[-108.3951388,54.5118337],[-108.3949798,54.511824],[-108.3948353,54.5118123],[-108.3946337,54.5117928],[-108.3944254,54.5117707],[-108.3940245,54.5117212],[-108.3936134,54.511666],[-108.3927891,54.5115516],[-108.3925428,54.5115139],[-108.3923434,54.51148],[-108.3920847,54.5114319],[-108.3918495,54.5113864],[-108.3916222,54.5113389],[-108.3914744,54.5113038],[-108.391191,54.5112297],[-108.3909995,54.5111783],[-108.390827,54.5111289],[-108.3906602,54.5110743],[-108.3904932,54.5110209],[-108.3903208,54.5109595],[-108.3901095,54.510882],[-108.3898982,54.5107981],[-108.3896451,54.5106996],[-108.3890974,54.5104639],[-108.3886997,54.5102896],[-108.3883382,54.5101185],[-108.3880129,54.5099587],[-108.3877988,54.5098505],[-108.3874178,54.5096487],[-108.3872427,54.5095502],[-108.3870842,54.509463],[-108.3869229,54.5093646],[-108.3865864,54.5091708],[-108.3862027,54.5089368],[-108.3859052,54.5087479],[-108.3853991,54.5084153],[-108.3849931,54.5081215],[-108.3843119,54.5076162],[-108.3841256,54.5074773],[-108.3839448,54.5073643],[-108.3837863,54.5072771],[-108.3835249,54.5071577],[-108.383347,54.5070866],[-108.3831662,54.5070221],[-108.3829632,54.5069591],[-108.3827797,54.5069107],[-108.3825795,54.5068639],[-108.3824488,54.5068299],[-108.3823404,54.5067864],[-108.3822542,54.506725],[-108.3821902,54.5066556],[-108.3821541,54.5065684],[-108.382129,54.5064538],[-108.382104,54.5062471],[-108.3820929,54.5058871],[-108.3820873,54.5051493],[-108.3821012,54.5048586],[-108.3821318,54.5044921],[-108.3821541,54.5042264],[-108.3822069,54.503927],[-108.3822764,54.5033636],[-108.3823098,54.5031197],[-108.3823654,54.5028114],[-108.3824599,54.5022898],[-108.3824961,54.5021154],[-108.3825434,54.5019201],[-108.382599,54.5017328],[-108.3826852,54.501518],[-108.382763,54.5013808],[-108.3828576,54.5011854],[-108.3829021,54.5010627],[-108.3830216,54.5007753],[-108.3830995,54.5005218],[-108.3831829,54.5003425]]},"properties":{"highway":"residential","oneway":"no","surface":"unpaved","osmId":244432488,"osmType":"way","sourceUrl":"https://www.openstreetmap.org/way/244432488"}},{"type":"Feature","id":"way/244674634","geometry":{"type":"LineString","coordinates":[[-108.4086066,54.5156892],[-108.4086323,54.5156466],[-108.4086531,54.5156041],[-108.4086818,54.5155374],[-108.408699,54.5154989],[-108.4087176,54.5154615],[-108.4087487,54.5154118],[-108.4088012,54.5153314],[-108.4088506,54.5152528],[-108.409064,54.5148876],[-108.409132,54.5147843],[-108.409209,54.5146714],[-108.4092806,54.5145564],[-108.4093521,54.5144393],[-108.4094072,54.5143413],[-108.4094861,54.5141922],[-108.4096181,54.5139473],[-108.4096622,54.5138511],[-108.4096937,54.513777],[-108.4097187,54.5137129],[-108.4097372,54.5136495],[-108.409745,54.5135892],[-108.409745,54.513535],[-108.4097358,54.5134869],[-108.4097122,54.5134365],[-108.4096766,54.5133777],[-108.4094872,54.5131364],[-108.4091216,54.5126951],[-108.4088822,54.5124041],[-108.4087356,54.5122393],[-108.4086323,54.5121231],[-108.4082377,54.5116635],[-108.4079694,54.5113397],[-108.4077286,54.5110701],[-108.4075548,54.5108613]]},"properties":{"highway":"residential","osmId":244674634,"osmType":"way","sourceUrl":"https://www.openstreetmap.org/way/244674634"}},{"type":"Feature","id":"way/244674635","geometry":{"type":"LineString","coordinates":[[-108.4087356,54.5122393],[-108.4085601,54.5122988],[-108.4084621,54.5123229],[-108.4083258,54.5123366],[-108.40825,54.5123444],[-108.4081382,54.5123497],[-108.4080891,54.5123537],[-108.4080399,54.5123605],[-108.4079901,54.5123692],[-108.4079416,54.5123797],[-108.4079012,54.5123901],[-108.4078613,54.5124013],[-108.4078116,54.5124118],[-108.4077593,54.512419],[-108.4077089,54.5124226],[-108.4076535,54.5124223],[-108.4076,54.5124205],[-108.4075422,54.5124161],[-108.4074849,54.5124096],[-108.4074196,54.5123995],[-108.4073593,54.512389],[-108.4072725,54.5123722],[-108.4071722,54.512353],[-108.4070864,54.512335],[-108.4069635,54.5123083],[-108.4068622,54.5122876],[-108.4067702,54.5122714],[-108.4067051,54.512263],[-108.4066699,54.512261],[-108.406633,54.5122604],[-108.4065967,54.5122622],[-108.4065615,54.5122648],[-108.4065253,54.5122682],[-108.4064902,54.512272],[-108.4064563,54.5122781],[-108.4064251,54.5122858],[-108.40636,54.5123038],[-108.4062949,54.5123272],[-108.4062401,54.5123506],[-108.4061832,54.5123812],[-108.4061316,54.512413],[-108.406084,54.512449],[-108.406022,54.5124994],[-108.4059456,54.5125696],[-108.4058836,54.5126308],[-108.4058246,54.5126908],[-108.4057678,54.5127532],[-108.4055747,54.5129648],[-108.4054176,54.5131291],[-108.4053472,54.5131997],[-108.4052776,54.5132732],[-108.405225,54.5133287],[-108.4051731,54.5133876],[-108.4051316,54.5134354],[-108.4050923,54.5134835],[-108.404973,54.5136388],[-108.4049212,54.5137012],[-108.4048656,54.5137589]]},"properties":{"highway":"residential","osmId":244674635,"osmType":"way","sourceUrl":"https://www.openstreetmap.org/way/244674635"}},{"type":"Feature","id":"way/244775341","geometry":{"type":"LineString","coordinates":[[-108.4071824,54.5151738],[-108.4072725,54.5149065],[-108.407317,54.5147496],[-108.4073592,54.5145644],[-108.4073879,54.5143723],[-108.4073947,54.514288],[-108.407398,54.514192],[-108.4073896,54.5140969],[-108.4073761,54.5140205],[-108.4073356,54.5138402],[-108.4073136,54.513702],[-108.4073001,54.513553],[-108.4072934,54.5134011],[-108.4072934,54.5133208],[-108.4073035,54.51326],[-108.4073845,54.5130915],[-108.4075483,54.5128229],[-108.407658,54.5126808],[-108.4077238,54.5126005],[-108.4077576,54.5125485],[-108.4077779,54.5124966],[-108.4078116,54.5124118]]},"properties":{"highway":"unclassified","osmId":244775341,"osmType":"way","sourceUrl":"https://www.openstreetmap.org/way/244775341"}},{"type":"Feature","id":"way/244775342","geometry":{"type":"LineString","coordinates":[[-108.4076291,54.5154058],[-108.4073948,54.5161836],[-108.4071473,54.516876],[-108.4069137,54.5175345],[-108.4067386,54.5180429],[-108.4065244,54.5186014],[-108.4062944,54.5192397],[-108.4061599,54.5195506],[-108.4061268,54.5196216],[-108.4061074,54.5196894],[-108.4061102,54.5197427],[-108.4061352,54.5197895],[-108.4061769,54.519825],[-108.4062325,54.5198557],[-108.4063104,54.5198847],[-108.4064466,54.5199138],[-108.4066311,54.519946],[-108.4068192,54.5199719],[-108.4070222,54.5199929],[-108.4071274,54.519998],[-108.4072338,54.519997],[-108.407352,54.5199931],[-108.4080086,54.51995],[-108.4082725,54.5199369]]},"properties":{"highway":"residential","osmId":244775342,"osmType":"way","sourceUrl":"https://www.openstreetmap.org/way/244775342"}},{"type":"Feature","id":"way/244775343","geometry":{"type":"LineString","coordinates":[[-108.4097395,54.5158775],[-108.4095143,54.5165845],[-108.4093725,54.5170009],[-108.4092112,54.5174577],[-108.4090778,54.5178095],[-108.4087622,54.5186308],[-108.4083145,54.5198219],[-108.4082725,54.5199369],[-108.4081032,54.5203642],[-108.4079836,54.5206854],[-108.407839,54.5210937],[-108.4076583,54.5216311],[-108.4075499,54.5219866]]},"properties":{"highway":"residential","osmId":244775343,"osmType":"way","sourceUrl":"https://www.openstreetmap.org/way/244775343"}},{"type":"Feature","id":"way/244775344","geometry":{"type":"LineString","coordinates":[[-108.4041532,54.5107053],[-108.4048623,54.5107406],[-108.4053535,54.510766],[-108.406157,54.5108062],[-108.4068492,54.5108405],[-108.40718,54.5108552],[-108.4073438,54.5108611],[-108.4074907,54.5108631],[-108.4075548,54.5108613],[-108.4076308,54.5108591],[-108.4077404,54.5108517],[-108.4078435,54.5108484],[-108.4079245,54.5108493],[-108.4084833,54.5109179],[-108.4087483,54.5109562],[-108.408983,54.5109993],[-108.4091805,54.5110365],[-108.4093763,54.5110699],[-108.4096177,54.511111],[-108.4098738,54.5111559],[-108.4101018,54.5111947],[-108.4102965,54.5112254],[-108.4105328,54.5112576],[-108.4107454,54.5112825],[-108.4111201,54.5113237],[-108.4114983,54.5113648],[-108.411765,54.5113933],[-108.4119693,54.511408],[-108.4122377,54.5114236],[-108.4124723,54.5114315],[-108.4127306,54.5114374],[-108.4129821,54.5114325],[-108.4132961,54.5114269]]},"properties":{"highway":"residential","osmId":244775344,"osmType":"way","sourceUrl":"https://www.openstreetmap.org/way/244775344"}},{"type":"Feature","id":"way/244775345","geometry":{"type":"LineString","coordinates":[[-108.4105328,54.5112576],[-108.4103988,54.5112911],[-108.4103211,54.5113126],[-108.4102418,54.5113391],[-108.4101675,54.5113685],[-108.4100645,54.5114116],[-108.4097083,54.5115665],[-108.4094315,54.511686],[-108.4092019,54.5117791],[-108.4089993,54.5118732],[-108.4088811,54.5119359],[-108.4088136,54.5119751],[-108.4087647,54.5120085],[-108.4087208,54.5120447],[-108.4086323,54.5121231]]},"properties":{"highway":"residential","osmId":244775345,"osmType":"way","sourceUrl":"https://www.openstreetmap.org/way/244775345"}},{"type":"Feature","id":"way/244817993","geometry":{"type":"LineString","coordinates":[[-108.3896872,54.4873659],[-108.3896658,54.4875186],[-108.3896991,54.48758],[-108.3897686,54.4876301],[-108.389891,54.4876898],[-108.3900495,54.4877447],[-108.3903025,54.4878077]]},"properties":{"highway":"residential","maxspeed":"40","osmId":244817993,"osmType":"way","sourceUrl":"https://www.openstreetmap.org/way/244817993"}},{"type":"Feature","id":"way/259361043","geometry":{"type":"LineString","coordinates":[[-108.2703828,54.4018323],[-108.2715711,54.402039],[-108.2718882,54.402136],[-108.273613,54.4028493],[-108.2745769,54.4034195],[-108.2765063,54.4047667],[-108.2768649,54.4049366],[-108.2776514,54.4051611],[-108.2778521,54.4051567],[-108.2789304,54.4053968]]},"properties":{"highway":"unclassified","lanes":"2","maxspeed":"80","source":"NRCan-CanVec-10.0","surface":"dirt","osmId":259361043,"osmType":"way","sourceUrl":"https://www.openstreetmap.org/way/259361043"}},{"type":"Feature","id":"way/259361053","geometry":{"type":"LineString","coordinates":[[-108.369035,54.4896289],[-108.3714748,54.4901136],[-108.3725276,54.4907927],[-108.3732508,54.4917974],[-108.3736453,54.4921476],[-108.3735973,54.4943402],[-108.3730793,54.495192],[-108.3722449,54.49592],[-108.3721316,54.4962412],[-108.3747398,54.4977184]]},"properties":{"highway":"track","lanes":"1","source":"NRCan-CanVec-10.0","surface":"dirt","osmId":259361053,"osmType":"way","sourceUrl":"https://www.openstreetmap.org/way/259361053"}},{"type":"Feature","id":"way/259361058","geometry":{"type":"LineString","coordinates":[[-108.3938489,54.4663696],[-108.3942249,54.4667218],[-108.3942997,54.4667919],[-108.3949408,54.4672715],[-108.3957619,54.4678403],[-108.3966307,54.4682546],[-108.4002217,54.4695546],[-108.4019579,54.4704101],[-108.4028349,54.4711841],[-108.4046612,54.471972],[-108.4051498,54.4723162],[-108.4051843,54.4724986]]},"properties":{"highway":"track","lanes":"1","source":"NRCan-CanVec-10.0","surface":"dirt","tracktype":"grade1","osmId":259361058,"osmType":"way","sourceUrl":"https://www.openstreetmap.org/way/259361058"}},{"type":"Feature","id":"way/259361072","geometry":{"type":"LineString","coordinates":[[-108.4093433,54.4759089],[-108.4107556,54.4765235],[-108.4109949,54.4768883],[-108.4105657,54.4802594],[-108.410801,54.4816669],[-108.4108297,54.4834116],[-108.4108977,54.4835569],[-108.4108566,54.4837178],[-108.4109511,54.4844211],[-108.41082,54.4850296],[-108.4105547,54.4855633]]},"properties":{"highway":"residential","lanes":"2","maxspeed":"40","source":"NRCan-CanVec-10.0","surface":"gravel","osmId":259361072,"osmType":"way","sourceUrl":"https://www.openstreetmap.org/way/259361072"}},{"type":"Feature","id":"way/259361075","geometry":{"type":"LineString","coordinates":[[-108.3132217,54.4367056],[-108.312337,54.4372613],[-108.3118395,54.4373222],[-108.3098219,54.4370435],[-108.3085613,54.4367457],[-108.3078067,54.4367289],[-108.3073857,54.4370342],[-108.3069174,54.4378239],[-108.3066788,54.4379354],[-108.306026,54.4380108],[-108.3052076,54.438496]]},"properties":{"highway":"track","lanes":"1","source":"NRCan-CanVec-10.0","surface":"dirt","osmId":259361075,"osmType":"way","sourceUrl":"https://www.openstreetmap.org/way/259361075"}},{"type":"Feature","id":"way/259361081","geometry":{"type":"LineString","coordinates":[[-108.4062062,54.4752302],[-108.4053669,54.4753201],[-108.4047177,54.4753331],[-108.4009888,54.4759542],[-108.3985354,54.4764228],[-108.3973301,54.4766845],[-108.3946156,54.4773722],[-108.3939944,54.4774307],[-108.3929934,54.4773911]]},"properties":{"highway":"residential","lanes":"2","maxspeed":"40","source":"NRCan-CanVec-10.0","surface":"dirt","osmId":259361081,"osmType":"way","sourceUrl":"https://www.openstreetmap.org/way/259361081"}},{"type":"Feature","id":"way/259361083","geometry":{"type":"LineString","coordinates":[[-108.2804901,54.3736861],[-108.2810023,54.373392],[-108.2816664,54.3735958],[-108.28232,54.3734936],[-108.2830491,54.3736449],[-108.2838528,54.3740676],[-108.2845832,54.3742009],[-108.2851639,54.3740342],[-108.2856087,54.3740621],[-108.2865881,54.3736886],[-108.2870778,54.3737356]]},"properties":{"highway":"track","lanes":"1","source":"NRCan-CanVec-10.0","surface":"dirt","osmId":259361083,"osmType":"way","sourceUrl":"https://www.openstreetmap.org/way/259361083"}},{"type":"Feature","id":"way/259361086","geometry":{"type":"LineString","coordinates":[[-108.4782587,54.3983084],[-108.4780735,54.3983135],[-108.4659963,54.3975211],[-108.4653902,54.3973556],[-108.4644348,54.396859],[-108.4637694,54.3966563],[-108.4619301,54.3965007],[-108.4608326,54.3965585],[-108.4579132,54.3969286],[-108.4560773,54.3974653],[-108.453558,54.397592],[-108.4499563,54.3967877],[-108.44911,54.3967698],[-108.4478452,54.3970398],[-108.4411807,54.3991552],[-108.4392591,54.4003191],[-108.4383551,54.4007315],[-108.4361532,54.4009544],[-108.4325855,54.4010854],[-108.4295565,54.4007332],[-108.4273753,54.4006238],[-108.4261397,54.4006694],[-108.4248963,54.4008407],[-108.4238319,54.4011056],[-108.4231476,54.4014506],[-108.4195601,54.4043498],[-108.4177914,54.4042939],[-108.4162428,54.4044136],[-108.4141011,54.4048982],[-108.4133597,54.40517],[-108.4130509,54.4054241],[-108.4126917,54.4074572],[-108.4125955,54.4089835],[-108.4108651,54.4132078],[-108.4106457,54.4135087],[-108.4099885,54.4136654],[-108.4084592,54.4129853],[-108.407942,54.4128753],[-108.4072585,54.4129595],[-108.3824445,54.4129274],[-108.3820848,54.4130095],[-108.3816468,54.4135934],[-108.3808463,54.4140615],[-108.3788547,54.4145937],[-108.3772616,54.4151614],[-108.3758111,54.4154266],[-108.3732895,54.4165315],[-108.3709992,54.4164277],[-108.3703475,54.4164944],[-108.3691379,54.4170884],[-108.3678037,54.4172211],[-108.3665605,54.4176166],[-108.3648093,54.4180009],[-108.3639733,54.4182973],[-108.3636866,54.4189204],[-108.3632906,54.4193253],[-108.3599338,54.4202229],[-108.3586989,54.4207263],[-108.3565825,54.4212733],[-108.3561364,54.4214973],[-108.3559654,54.421997],[-108.3561499,54.422963],[-108.3568497,54.4240662],[-108.3566851,54.4244671],[-108.3567782,54.4249367],[-108.3564141,54.4253243],[-108.355169,54.4255038],[-108.3545085,54.4257051],[-108.3526362,54.4258079],[-108.3513554,54.4263012],[-108.3509819,54.426356],[-108.3505234,54.426292],[-108.3503483,54.426378],[-108.3490366,54.4259177],[-108.3475483,54.4258041],[-108.3461254,54.4253952],[-108.3442313,54.4251198],[-108.3425667,54.4246337],[-108.3418521,54.4242403],[-108.3414452,54.42362],[-108.3404895,54.4231405],[-108.3394897,54.4228667],[-108.338477,54.4227905],[-108.3368405,54.4228263],[-108.3365142,54.422864],[-108.3359745,54.4231039],[-108.3356108,54.4230059],[-108.3341903,54.4230375],[-108.3327709,54.4223409],[-108.3303692,54.4215775],[-108.3282485,54.4212339],[-108.3274901,54.4212801],[-108.3256846,54.4217795],[-108.3242642,54.421811],[-108.3231479,54.4216693],[-108.3220956,54.4222034],[-108.3208803,54.422635],[-108.32015,54.4231941],[-108.3193683,54.4240668],[-108.3174198,54.4253362],[-108.3171104,54.4258238],[-108.316277,54.4265425],[-108.3158871,54.4270822],[-108.3153377,54.4274656],[-108.3149694,54.4274394],[-108.3144908,54.427213],[-108.312905,54.4262337],[-108.3124844,54.4258288],[-108.3103005,54.4245664],[-108.3083355,54.4237314],[-108.3073187,54.423484]]},"properties":{"highway":"track","lanes":"1","source":"NRCan-CanVec-10.0","surface":"dirt","osmId":259361086,"osmType":"way","sourceUrl":"https://www.openstreetmap.org/way/259361086"}},{"type":"Feature","id":"way/259361097","geometry":{"type":"LineString","coordinates":[[-108.4105547,54.4855633],[-108.412063,54.4856406],[-108.4124445,54.4857117],[-108.4125919,54.4858227],[-108.4125709,54.4861549],[-108.4126641,54.4863907],[-108.4125214,54.4864505],[-108.4122152,54.486408],[-108.4115201,54.4861684],[-108.4108792,54.4860468],[-108.4104006,54.4860455],[-108.4100734,54.4860924]]},"properties":{"highway":"residential","lanes":"2","maxspeed":"40","source":"NRCan-CanVec-10.0","surface":"gravel","osmId":259361097,"osmType":"way","sourceUrl":"https://www.openstreetmap.org/way/259361097"}},{"type":"Feature","id":"way/259361100","geometry":{"type":"LineString","coordinates":[[-108.2863935,54.3437275],[-108.2865389,54.3438566],[-108.2866505,54.3444975],[-108.286495,54.3449885],[-108.2865351,54.346248],[-108.2871792,54.3474493],[-108.2871981,54.3480971],[-108.2865402,54.3487386],[-108.2840128,54.3492571],[-108.2833106,54.3496369],[-108.2828176,54.3501112],[-108.2826377,54.351204]]},"properties":{"highway":"track","lanes":"1","source":"NRCan-CanVec-10.0","surface":"dirt","osmId":259361100,"osmType":"way","sourceUrl":"https://www.openstreetmap.org/way/259361100"}},{"type":"Feature","id":"way/259361136","geometry":{"type":"LineString","coordinates":[[-108.4100734,54.4860924],[-108.4092657,54.4873877],[-108.4089765,54.4882985],[-108.4084686,54.4894923],[-108.4083694,54.4900835],[-108.4084323,54.4903096],[-108.4086432,54.4906378],[-108.409453,54.4918887],[-108.409995,54.4934357],[-108.4109678,54.4963694],[-108.4110017,54.4968106],[-108.4109201,54.4972879],[-108.4109043,54.4973352],[-108.4105258,54.4984665],[-108.4103039,54.4992346],[-108.410321,54.4997351],[-108.4105002,54.5004734],[-108.410833,54.5012811],[-108.4111999,54.501836],[-108.4115071,54.5019847],[-108.4119423,54.502059],[-108.4123851,54.502063]]},"properties":{"highway":"residential","lanes":"2","maxspeed":"40","source":"NRCan-CanVec-10.0","surface":"gravel","osmId":259361136,"osmType":"way","sourceUrl":"https://www.openstreetmap.org/way/259361136"}},{"type":"Feature","id":"way/259361155","geometry":{"type":"LineString","coordinates":[[-108.4097441,54.4851953],[-108.4089383,54.485241],[-108.4079863,54.4854004],[-108.4061103,54.4855219],[-108.404444,54.4862323],[-108.4039877,54.4863664],[-108.3985799,54.4876345],[-108.3980864,54.4878666],[-108.397577,54.4883501],[-108.3971806,54.4885124],[-108.3966369,54.4885636],[-108.3958967,54.4885477],[-108.3945734,54.4882315],[-108.3931889,54.4881477],[-108.3915932,54.4879874],[-108.3904979,54.4878319],[-108.3903025,54.4878077]]},"properties":{"highway":"residential","lanes":"2","maxspeed":"40","source":"NRCan-CanVec-10.0","surface":"dirt","osmId":259361155,"osmType":"way","sourceUrl":"https://www.openstreetmap.org/way/259361155"}},{"type":"Feature","id":"way/259361161","geometry":{"type":"LineString","coordinates":[[-108.290062,54.2952353],[-108.2897928,54.2952884],[-108.2897172,54.2953031],[-108.2895595,54.2953338],[-108.289353,54.2953353],[-108.2892349,54.2953181],[-108.2891572,54.2952852],[-108.2891303,54.2952492],[-108.2891411,54.2951976],[-108.2892028,54.295171],[-108.289374,54.2951731],[-108.290062,54.2952353],[-108.2902649,54.295261],[-108.2904098,54.2953066],[-108.2904956,54.2953705],[-108.2905479,54.2954394],[-108.290576,54.295513],[-108.2905734,54.2955905],[-108.2905998,54.2956748],[-108.2907289,54.2958002],[-108.2909814,54.2959734],[-108.2919306,54.2964639],[-108.2922288,54.2966398],[-108.2924295,54.2968271],[-108.2926249,54.2971612],[-108.2928211,54.2975659],[-108.2928854,54.2977976],[-108.2930239,54.2980686],[-108.293159,54.2982891],[-108.293277,54.2984675],[-108.2935106,54.2986555],[-108.294602,54.2991687],[-108.2950025,54.2993453],[-108.2954389,54.2994598],[-108.2962918,54.2996445],[-108.2970139,54.299849],[-108.2974927,54.3000485],[-108.2980725,54.3003492],[-108.2984527,54.3004117],[-108.2993466,54.3008453],[-108.3002522,54.3008656]]},"properties":{"highway":"track","lanes":"1","source":"NRCan-CanVec-10.0","surface":"dirt","osmId":259361161,"osmType":"way","sourceUrl":"https://www.openstreetmap.org/way/259361161"}},{"type":"Feature","id":"way/259361180","geometry":{"type":"LineString","coordinates":[[-108.3007787,54.3123134],[-108.300128,54.3126225],[-108.2984907,54.3136737],[-108.2971835,54.3150829],[-108.2964407,54.3160912],[-108.2957079,54.3164793],[-108.2957209,54.3167494],[-108.2961344,54.3172441],[-108.2961847,54.3176498],[-108.2959895,54.3194526],[-108.2964615,54.3199936],[-108.2964291,54.3204874],[-108.2966206,54.3208513],[-108.2971829,54.3209538],[-108.2979418,54.3208719],[-108.2987126,54.3206105],[-108.2996186,54.3206308]]},"properties":{"highway":"track","lanes":"1","source":"NRCan-CanVec-10.0","surface":"dirt","osmId":259361180,"osmType":"way","sourceUrl":"https://www.openstreetmap.org/way/259361180"}},{"type":"Feature","id":"way/259361185","geometry":{"type":"LineString","coordinates":[[-108.3929934,54.4773911],[-108.3926172,54.4774819],[-108.3923459,54.4776199],[-108.3919993,54.477972],[-108.3918902,54.4782304],[-108.3918423,54.4784991],[-108.3918919,54.4786889],[-108.3924886,54.4797447],[-108.3925908,54.4800795],[-108.3925765,54.480304],[-108.3915685,54.4820713],[-108.3907015,54.4833202],[-108.3907243,54.4836892],[-108.3915871,54.485416],[-108.3916189,54.4855739],[-108.3915534,54.485703],[-108.391418,54.4858889],[-108.3896872,54.4873659],[-108.3895891,54.4874496]]},"properties":{"highway":"residential","lanes":"2","maxspeed":"40","source":"NRCan-CanVec-10.0","surface":"dirt","osmId":259361185,"osmType":"way","sourceUrl":"https://www.openstreetmap.org/way/259361185"}},{"type":"Feature","id":"way/259361189","geometry":{"type":"LineString","coordinates":[[-108.4279561,54.2950362],[-108.4267646,54.2956581],[-108.4261709,54.2960589],[-108.4253285,54.2967512],[-108.424539,54.2975794],[-108.4243137,54.2979882],[-108.4241969,54.2983812],[-108.4242942,54.2997768],[-108.4242542,54.3001715],[-108.4240704,54.3006531],[-108.4239051,54.3008384],[-108.4233038,54.3011132],[-108.4206123,54.3018738],[-108.4172438,54.3031322],[-108.4160074,54.3034833],[-108.4151119,54.303545],[-108.4030506,54.3036904]]},"properties":{"highway":"unclassified","lanes":"2","maxspeed":"80","source":"NRCan-CanVec-10.0","surface":"dirt","osmId":259361189,"osmType":"way","sourceUrl":"https://www.openstreetmap.org/way/259361189"}},{"type":"Feature","id":"way/259361199","geometry":{"type":"LineString","coordinates":[[-108.3675716,54.4376691],[-108.3665831,54.4384117],[-108.3647926,54.4391548],[-108.3640631,54.4397053],[-108.3636055,54.4398661],[-108.3600023,54.4400121],[-108.3540873,54.4398916],[-108.3536148,54.4400431],[-108.3534937,54.4402472],[-108.3535422,54.4414081],[-108.3532937,54.4416723],[-108.3523379,54.4419031],[-108.351592,54.4422284],[-108.3503503,54.4430642],[-108.3496223,54.4431112],[-108.3471673,54.4426707],[-108.3455944,54.4426631],[-108.3456014,54.4425553],[-108.344452,54.4424402]]},"properties":{"highway":"track","lanes":"1","source":"NRCan-CanVec-10.0","surface":"dirt","osmId":259361199,"osmType":"way","sourceUrl":"https://www.openstreetmap.org/way/259361199"}},{"type":"Feature","id":"way/259361231","geometry":{"type":"LineString","coordinates":[[-108.4098493,54.4854853],[-108.4105547,54.4855633]]},"properties":{"highway":"residential","lanes":"2","maxspeed":"40","source":"NRCan-CanVec-10.0","surface":"gravel","osmId":259361231,"osmType":"way","sourceUrl":"https://www.openstreetmap.org/way/259361231"}},{"type":"Feature","id":"way/259361238","geometry":{"type":"LineString","coordinates":[[-108.4047915,54.3290268],[-108.4042163,54.3291223]]},"properties":{"highway":"unclassified","lanes":"2","maxspeed":"80","source":"NRCan-CanVec-10.0","surface":"gravel","osmId":259361238,"osmType":"way","sourceUrl":"https://www.openstreetmap.org/way/259361238"}},{"type":"Feature","id":"way/259361242","geometry":{"type":"LineString","coordinates":[[-108.4089903,54.4756316],[-108.4093433,54.4759089]]},"properties":{"highway":"residential","lanes":"2","maxspeed":"40","source":"NRCan-CanVec-10.0","surface":"gravel","osmId":259361242,"osmType":"way","sourceUrl":"https://www.openstreetmap.org/way/259361242"}},{"type":"Feature","id":"way/259361265","geometry":{"type":"LineString","coordinates":[[-108.4030506,54.3036904],[-108.4030879,54.3131041]]},"properties":{"highway":"unclassified","lanes":"2","maxspeed":"80","source":"NRCan-CanVec-10.0","surface":"dirt","osmId":259361265,"osmType":"way","sourceUrl":"https://www.openstreetmap.org/way/259361265"}},{"type":"Feature","id":"way/259361269","geometry":{"type":"LineString","coordinates":[[-108.4782587,54.3983084],[-108.4782518,54.4001782]]},"properties":{"highway":"track","lanes":"1","source":"NRCan-CanVec-10.0","surface":"dirt","osmId":259361269,"osmType":"way","sourceUrl":"https://www.openstreetmap.org/way/259361269"}},{"type":"Feature","id":"way/259361314","geometry":{"type":"LineString","coordinates":[[-108.3004631,54.375],[-108.3020651,54.3753213],[-108.3045848,54.3758811],[-108.3086312,54.3766457],[-108.3155094,54.3769698],[-108.3167077,54.3770144],[-108.317033,54.3769857],[-108.3172146,54.3770347],[-108.317983,54.3770608],[-108.3184957,54.3769913],[-108.3230135,54.375725],[-108.3235724,54.3756565],[-108.3239089,54.3756909],[-108.3241958,54.3757782],[-108.3307477,54.3780451],[-108.3319878,54.3783962],[-108.3327378,54.3784667],[-108.3340155,54.378477],[-108.3345418,54.3784347],[-108.3353534,54.3785065],[-108.3367387,54.3785191],[-108.3382032,54.3784975],[-108.3388082,54.3784299],[-108.3390128,54.3783625]]},"properties":{"highway":"unclassified","lanes":"2","maxspeed":"80","source":"NRCan-CanVec-10.0","surface":"gravel","osmId":259361314,"osmType":"way","sourceUrl":"https://www.openstreetmap.org/way/259361314"}},{"type":"Feature","id":"way/259361367","geometry":{"type":"LineString","coordinates":[[-108.4093433,54.4759089],[-108.40714,54.4760864],[-108.406545,54.4762174]]},"properties":{"highway":"residential","lanes":"2","maxspeed":"40","source":"NRCan-CanVec-10.0","surface":"gravel","osmId":259361367,"osmType":"way","sourceUrl":"https://www.openstreetmap.org/way/259361367"}},{"type":"Feature","id":"way/259361375","geometry":{"type":"LineString","coordinates":[[-108.3955049,54.3036535],[-108.3970657,54.3037681],[-108.4030506,54.3036904]]},"properties":{"highway":"track","lanes":"1","source":"NRCan-CanVec-10.0","surface":"dirt","osmId":259361375,"osmType":"way","sourceUrl":"https://www.openstreetmap.org/way/259361375"}},{"type":"Feature","id":"way/259361417","geometry":{"type":"LineString","coordinates":[[-108.3073187,54.423484],[-108.3073455,54.4237813],[-108.3074705,54.4239909],[-108.3083364,54.4246575],[-108.3085468,54.4249768],[-108.3089265,54.4253],[-108.3091392,54.4255834],[-108.3092376,54.4259632],[-108.3092213,54.4266821],[-108.3093867,54.4269825],[-108.3099791,54.427589],[-108.3101273,54.427916],[-108.3096036,54.4288483],[-108.3096594,54.4291732],[-108.3098621,54.4296093],[-108.3098047,54.4297788],[-108.3099487,54.4299349],[-108.3100366,54.4304763],[-108.3097966,54.4315498],[-108.3093715,54.4319179],[-108.3092673,54.4320954],[-108.3093237,54.4324113],[-108.309597,54.4329478],[-108.3101273,54.433562],[-108.3105977,54.4339141],[-108.3108376,54.4340184],[-108.3114329,54.4341125],[-108.3117013,54.4342534],[-108.3118459,54.4344004],[-108.3127474,54.4357061],[-108.3128264,54.4361484],[-108.3132217,54.4367056]]},"properties":{"highway":"unclassified","lanes":"2","maxspeed":"80","source":"NRCan-CanVec-10.0","surface":"dirt","osmId":259361417,"osmType":"way","sourceUrl":"https://www.openstreetmap.org/way/259361417"}},{"type":"Feature","id":"way/259361440","geometry":{"type":"LineString","coordinates":[[-108.2789304,54.4053968],[-108.2820287,54.4056194],[-108.282768,54.4056271],[-108.2836244,54.4054935],[-108.2858843,54.404879],[-108.2865406,54.404741],[-108.2878031,54.4045266],[-108.2883902,54.4045038],[-108.2887879,54.4045487],[-108.2893454,54.4047411],[-108.2897112,54.405037],[-108.2912275,54.4058802],[-108.2916768,54.406079],[-108.2924935,54.4063131],[-108.29344,54.4064513],[-108.2948569,54.406465],[-108.2972778,54.4069149],[-108.2977779,54.4070429],[-108.2982106,54.4072594],[-108.2984273,54.40748],[-108.2987636,54.407991],[-108.299094,54.4088255],[-108.2994995,54.4092212],[-108.3007368,54.4098602],[-108.3024843,54.4104747],[-108.3040318,54.4110847],[-108.304609,54.4112144],[-108.304947,54.411231],[-108.306434,54.4111203],[-108.3069851,54.4111776],[-108.3070816,54.4111168],[-108.3072035,54.4111375],[-108.3074854,54.4113056],[-108.3099903,54.4121256],[-108.312025,54.4123598]]},"properties":{"highway":"unclassified","lanes":"2","maxspeed":"80","source":"NRCan-CanVec-10.0","surface":"dirt","osmId":259361440,"osmType":"way","sourceUrl":"https://www.openstreetmap.org/way/259361440"}},{"type":"Feature","id":"way/259361450","geometry":{"type":"LineString","coordinates":[[-108.2863935,54.3437275],[-108.284088,54.3441521],[-108.2824404,54.3441689],[-108.281782,54.3441181],[-108.2784514,54.3435216],[-108.2749997,54.3431289],[-108.2741032,54.3431896],[-108.2733195,54.3434056],[-108.2724919,54.3438185],[-108.271488,54.3448027],[-108.2697013,54.3462188],[-108.2683363,54.3470779],[-108.2667715,54.3476988],[-108.2662002,54.3481893],[-108.2655034,54.3491805],[-108.2641138,54.3501739],[-108.2633225,54.3509651],[-108.2627195,54.3519314],[-108.2603744,54.3538651],[-108.2598827,54.3545462],[-108.2589776,54.3554247],[-108.2587719,54.3562023],[-108.2596089,54.3570394],[-108.2597262,54.3575905],[-108.2585022,54.3609432],[-108.2583769,54.3623609],[-108.25801,54.3627841],[-108.2565098,54.3638109],[-108.2556865,54.3648441],[-108.2557114,54.3653931],[-108.2565548,54.3679836],[-108.2564771,54.3682246],[-108.2561872,54.3684158],[-108.2549755,54.368577],[-108.2521131,54.368323],[-108.25,54.3687719]]},"properties":{"highway":"track","lanes":"1","source":"NRCan-CanVec-10.0","surface":"dirt","osmId":259361450,"osmType":"way","sourceUrl":"https://www.openstreetmap.org/way/259361450"}},{"type":"Feature","id":"way/259361466","geometry":{"type":"LineString","coordinates":[[-108.5,54.3135075],[-108.4983494,54.3135001],[-108.4958064,54.3138518],[-108.4942394,54.3138283],[-108.4922672,54.3136434],[-108.4908521,54.3133982],[-108.4879727,54.3132124],[-108.4833455,54.3134485],[-108.4830636,54.3135326],[-108.4824214,54.3139777],[-108.4817391,54.3140713],[-108.4763994,54.3138877],[-108.4751495,54.3139604],[-108.4734378,54.3137897],[-108.4709505,54.3139803],[-108.4680809,54.3143876],[-108.4665282,54.3143819],[-108.4654894,54.3145219],[-108.4610281,54.3148057],[-108.4557207,54.3145949],[-108.4529186,54.3146526],[-108.4465939,54.3139884],[-108.4416852,54.3140462],[-108.434233,54.3139597],[-108.4321143,54.3144001],[-108.4282417,54.314857],[-108.4267786,54.3151404],[-108.4261014,54.3153957],[-108.4250645,54.3159939],[-108.4241682,54.3160646],[-108.4223838,54.3158287],[-108.4218436,54.3158621],[-108.4208276,54.3163708],[-108.4192497,54.3177485],[-108.4190588,54.3180951],[-108.4192723,54.3198438],[-108.4196146,54.3205164],[-108.4201935,54.3210952],[-108.4198856,54.321592]]},"properties":{"highway":"track","lanes":"1","source":"NRCan-CanVec-10.0","surface":"dirt","osmId":259361466,"osmType":"way","sourceUrl":"https://www.openstreetmap.org/way/259361466"}},{"type":"Feature","id":"way/259361482","geometry":{"type":"LineString","coordinates":[[-108.382738,54.4769806],[-108.3832639,54.476965],[-108.3874394,54.4773341],[-108.3929934,54.4773911]]},"properties":{"highway":"track","lanes":"1","source":"NRCan-CanVec-10.0","surface":"dirt","tracktype":"grade2","osmId":259361482,"osmType":"way","sourceUrl":"https://www.openstreetmap.org/way/259361482"}},{"type":"Feature","id":"way/259361514","geometry":{"type":"LineString","coordinates":[[-108.5000287,54.3836845],[-108.4845311,54.3836865],[-108.4782654,54.3836366],[-108.4781698,54.3836886]]},"properties":{"highway":"unclassified","lanes":"2","maxspeed":"80","source":"NRCan-CanVec-10.0","surface":"gravel","osmId":259361514,"osmType":"way","sourceUrl":"https://www.openstreetmap.org/way/259361514"}},{"type":"Feature","id":"way/259361518","geometry":{"type":"LineString","coordinates":[[-108.3132217,54.4367056],[-108.3135405,54.4370184],[-108.3140927,54.4373004],[-108.3152882,54.4376507],[-108.31605,54.4377935],[-108.3170932,54.4378796],[-108.3177632,54.4380113],[-108.3181394,54.4381546],[-108.3183747,54.4383306],[-108.3184832,54.4385578],[-108.3183414,54.4390761],[-108.3184634,54.4400408],[-108.3183886,54.4407134],[-108.3180329,54.4412],[-108.3179573,54.4416478],[-108.318291,54.4419699],[-108.3190069,54.4423454],[-108.3198678,54.4426252],[-108.3207537,54.4429955],[-108.3213012,54.4431155],[-108.3232295,54.4431134],[-108.3247484,54.4430032],[-108.3267295,54.4431369],[-108.3274617,54.4430273],[-108.3287007,54.4427131],[-108.3293802,54.4427011],[-108.3308062,54.4428316],[-108.331669,54.4430844],[-108.3324973,54.4431566],[-108.3331163,54.4431253],[-108.334362,54.4429461],[-108.3356913,54.4429035],[-108.3365827,54.4427164],[-108.3387364,54.4418558],[-108.3392528,54.4417413],[-108.3397634,54.4417166],[-108.3411718,54.4418825],[-108.342068,54.4418573],[-108.3435447,54.4421595],[-108.344452,54.4424402]]},"properties":{"highway":"unclassified","lanes":"2","maxspeed":"80","source":"NRCan-CanVec-10.0","surface":"dirt","osmId":259361518,"osmType":"way","sourceUrl":"https://www.openstreetmap.org/way/259361518"}},{"type":"Feature","id":"way/259361527","geometry":{"type":"LineString","coordinates":[[-108.3006438,54.3094424],[-108.3000899,54.309448],[-108.2998165,54.3093969],[-108.2990535,54.3090741],[-108.2986886,54.309012],[-108.2980863,54.3090525],[-108.297014,54.3092262],[-108.2960722,54.309286],[-108.2952892,54.3092684],[-108.2942659,54.3093983],[-108.2933613,54.30936],[-108.2923982,54.3095092],[-108.2919258,54.3094447],[-108.2911877,54.3092123],[-108.2905305,54.3091526],[-108.2893076,54.3092779],[-108.2886185,54.3094692],[-108.2881119,54.3094578],[-108.2876714,54.309376],[-108.2869126,54.3094578],[-108.2867644,54.3093736],[-108.2864733,54.309358],[-108.2863233,54.3093007],[-108.2860594,54.309106],[-108.2856236,54.3091861],[-108.2854925,54.309309],[-108.2844231,54.3094377],[-108.2841367,54.3095841],[-108.2838267,54.3098558],[-108.2833253,54.3099974],[-108.2831948,54.3101113],[-108.2829267,54.3102132],[-108.2825352,54.3103212],[-108.2822264,54.3103412],[-108.2821266,54.3104559],[-108.2817321,54.3106088],[-108.2815543,54.3107397],[-108.281386,54.3107269],[-108.2810535,54.3108722],[-108.2800165,54.3114422],[-108.2783606,54.3118364]]},"properties":{"highway":"unclassified","lanes":"2","maxspeed":"80","source":"NRCan-CanVec-10.0","surface":"dirt","osmId":259361527,"osmType":"way","sourceUrl":"https://www.openstreetmap.org/way/259361527"}},{"type":"Feature","id":"way/259361554","geometry":{"type":"LineString","coordinates":[[-108.2789304,54.4053968],[-108.279731,54.4058733],[-108.280083,54.4063757],[-108.2803588,54.4066337],[-108.2807014,54.4068122],[-108.2815188,54.4070374],[-108.2817993,54.4072236],[-108.2822028,54.4076462],[-108.2827183,54.4080085],[-108.2829491,54.4082474],[-108.2831715,54.4088458],[-108.2833579,54.4090568],[-108.2843404,54.4095823],[-108.2849299,54.4099912],[-108.2850287,54.4101283],[-108.2850151,54.4103347],[-108.2847515,54.4110571],[-108.2847538,54.4114887],[-108.2848733,54.411779],[-108.2852539,54.4120843],[-108.2855801,54.4122804],[-108.2863354,54.4125132],[-108.2866781,54.4126917],[-108.2872215,54.4130995],[-108.2876399,54.4135315],[-108.2881899,54.4138405],[-108.2911089,54.4146882],[-108.2924912,54.4152317],[-108.2958344,54.4164305],[-108.2962974,54.4166566],[-108.2970239,54.4170954],[-108.297311,54.4171828],[-108.2976047,54.4174051],[-108.2979943,54.4180432],[-108.2981536,54.4181996],[-108.2985403,54.418415],[-108.3011455,54.4193544],[-108.3022504,54.4199005],[-108.3034827,54.4203866],[-108.304801,54.4214409],[-108.3056999,54.4218386],[-108.3059919,54.4220878],[-108.3069104,54.4226568],[-108.3072262,54.4230144],[-108.3073187,54.423484]]},"properties":{"highway":"unclassified","lanes":"2","maxspeed":"80","source":"NRCan-CanVec-10.0","surface":"dirt","osmId":259361554,"osmType":"way","sourceUrl":"https://www.openstreetmap.org/way/259361554"}},{"type":"Feature","id":"way/259361558","geometry":{"type":"LineString","coordinates":[[-108.2965594,54.3470935],[-108.2997345,54.3472545],[-108.3011123,54.3478338],[-108.3029642,54.3482259],[-108.3039981,54.3486536]]},"properties":{"highway":"track","lanes":"1","source":"NRCan-CanVec-10.0","surface":"dirt","osmId":259361558,"osmType":"way","sourceUrl":"https://www.openstreetmap.org/way/259361558"}},{"type":"Feature","id":"way/259361561","geometry":{"type":"LineString","coordinates":[[-108.4030879,54.3131041],[-108.4030668,54.321249],[-108.403035,54.321509],[-108.4029332,54.3216596],[-108.4023639,54.3219081]]},"properties":{"highway":"unclassified","lanes":"2","maxspeed":"80","source":"NRCan-CanVec-10.0","surface":"dirt","osmId":259361561,"osmType":"way","sourceUrl":"https://www.openstreetmap.org/way/259361561"}},{"type":"Feature","id":"way/259361568","geometry":{"type":"LineString","coordinates":[[-108.3747398,54.4977184],[-108.3759472,54.4981581],[-108.377237,54.4985188],[-108.377755,54.4988717],[-108.3789705,54.5004943],[-108.3795845,54.5010136],[-108.3802653,54.5025174],[-108.3815601,54.5040753],[-108.3821541,54.5042264]]},"properties":{"highway":"residential","lanes":"2","maxspeed":"40","source":"NRCan-CanVec-10.0","surface":"dirt","osmId":259361568,"osmType":"way","sourceUrl":"https://www.openstreetmap.org/way/259361568"}},{"type":"Feature","id":"way/259361572","geometry":{"type":"LineString","coordinates":[[-108.5,54.319442],[-108.4979181,54.3200989],[-108.4945996,54.3205514],[-108.4940423,54.3208635],[-108.4923495,54.322905],[-108.4912087,54.3239601],[-108.4905703,54.3248459],[-108.488911,54.3260789],[-108.4885001,54.3265109],[-108.4877766,54.3277814],[-108.4867586,54.3300977],[-108.486446,54.3314397],[-108.4859483,54.3320316],[-108.4846836,54.3330931],[-108.4832016,54.3339342],[-108.4820515,54.3348811],[-108.4802752,54.3355003],[-108.4779627,54.3360813],[-108.4756744,54.3362672],[-108.4734804,54.3366707],[-108.4730062,54.3368766],[-108.4717465,54.3380998],[-108.4688043,54.3404115],[-108.4673897,54.341146],[-108.4670807,54.3414182],[-108.4666212,54.3431347],[-108.4657975,54.3440164],[-108.4655626,54.3440834],[-108.4653797,54.3443043],[-108.4641627,54.3448271],[-108.4639145,54.3451096],[-108.4639621,54.3453353],[-108.4637963,54.3455296],[-108.46302,54.3458909],[-108.4625704,54.3459444],[-108.460734,54.3457799],[-108.4598545,54.346067],[-108.4591869,54.3464126],[-108.4578981,54.3473473],[-108.4563914,54.3480708],[-108.4560637,54.348891],[-108.4562316,54.3506566],[-108.4564674,54.3510751],[-108.4586747,54.3529646],[-108.4602645,54.3538881],[-108.4615006,54.3543097],[-108.462547,54.3553117],[-108.4626642,54.3559075],[-108.4618237,54.3568068],[-108.4617305,54.3572767],[-108.4620186,54.3578897],[-108.461656,54.3582777],[-108.4608789,54.3586479],[-108.4581655,54.3604607],[-108.4602265,54.3627337],[-108.4604291,54.3656868],[-108.4609323,54.3672616]]},"properties":{"highway":"track","lanes":"1","source":"NRCan-CanVec-10.0","surface":"dirt","osmId":259361572,"osmType":"way","sourceUrl":"https://www.openstreetmap.org/way/259361572"}},{"type":"Feature","id":"way/259361581","geometry":{"type":"LineString","coordinates":[[-108.2970596,54.3413507],[-108.2958937,54.3412976],[-108.2955055,54.3413519],[-108.2942391,54.3418899],[-108.2928079,54.3423612],[-108.2863935,54.3437275]]},"properties":{"highway":"track","lanes":"1","source":"NRCan-CanVec-10.0","surface":"dirt","osmId":259361581,"osmType":"way","sourceUrl":"https://www.openstreetmap.org/way/259361581"}},{"type":"Feature","id":"way/259361583","geometry":{"type":"LineString","coordinates":[[-108.2870778,54.3737356],[-108.2887538,54.374007],[-108.2893967,54.3740664],[-108.2962689,54.3742386],[-108.2971709,54.3743397],[-108.3004631,54.375]]},"properties":{"highway":"unclassified","lanes":"2","maxspeed":"80","source":"NRCan-CanVec-10.0","surface":"gravel","osmId":259361583,"osmType":"way","sourceUrl":"https://www.openstreetmap.org/way/259361583"}},{"type":"Feature","id":"way/259361586","geometry":{"type":"LineString","coordinates":[[-108.41007,54.3277648],[-108.4090608,54.3279139],[-108.4071926,54.3280266],[-108.4066573,54.3282219],[-108.4056807,54.3288302],[-108.4047915,54.3290268]]},"properties":{"highway":"track","lanes":"1","source":"NRCan-CanVec-10.0","surface":"dirt","osmId":259361586,"osmType":"way","sourceUrl":"https://www.openstreetmap.org/way/259361586"}},{"type":"Feature","id":"way/259361588","geometry":{"type":"LineString","coordinates":[[-108.3875216,54.3120846],[-108.388364,54.3120309],[-108.3905881,54.3118723],[-108.3911728,54.3118669],[-108.3962786,54.3123369],[-108.3991999,54.3127195],[-108.3992371,54.3127244],[-108.4030879,54.3131041]]},"properties":{"highway":"unclassified","lanes":"2","maxspeed":"80","source":"NRCan-CanVec-10.0","surface":"dirt","osmId":259361588,"osmType":"way","sourceUrl":"https://www.openstreetmap.org/way/259361588"}},{"type":"Feature","id":"way/259361593","geometry":{"type":"LineString","coordinates":[[-108.4042163,54.3291223],[-108.4043569,54.3293321],[-108.4043752,54.3295303],[-108.4037742,54.3305243],[-108.40376,54.3307487],[-108.403973,54.3312748],[-108.4039942,54.3316708]]},"properties":{"highway":"unclassified","lanes":"2","maxspeed":"80","source":"NRCan-CanVec-10.0","surface":"gravel","osmId":259361593,"osmType":"way","sourceUrl":"https://www.openstreetmap.org/way/259361593"}},{"type":"Feature","id":"way/259361596","geometry":{"type":"LineString","coordinates":[[-108.3006438,54.3094424],[-108.3055839,54.3096069],[-108.3156119,54.3100284],[-108.3185267,54.3101292],[-108.3192193,54.3101176],[-108.3198735,54.3099883],[-108.3216759,54.309462],[-108.3236616,54.3087149],[-108.3242703,54.3085756],[-108.3251023,54.3085491],[-108.3437482,54.3109932],[-108.3454826,54.3110404],[-108.3467019,54.3109684],[-108.3482494,54.3108136],[-108.3489262,54.3108105],[-108.3493048,54.3108997],[-108.3496339,54.3110418],[-108.3502108,54.3113962],[-108.3521037,54.3123278],[-108.3533291,54.3131189],[-108.35388,54.3134007],[-108.3542279,54.3134893],[-108.3546272,54.313498],[-108.3571394,54.3131665],[-108.3575068,54.3131926],[-108.3576569,54.3132498],[-108.358149,54.3137281],[-108.3585771,54.3140072],[-108.3601253,54.3145625],[-108.3632252,54.3158621],[-108.3637619,54.3161255],[-108.3641729,54.3164312],[-108.3645039,54.3165463],[-108.3656215,54.3166247],[-108.366135,54.3167708],[-108.3664863,54.3170482],[-108.367252,54.3178201],[-108.3693551,54.3195652],[-108.3698167,54.3200428],[-108.3699542,54.3202975],[-108.3702271,54.3218049],[-108.3704027,54.3221863],[-108.3712369,54.3228518],[-108.373394,54.3242384],[-108.3749922,54.3249834],[-108.3755257,54.3253007],[-108.3775169,54.3268814],[-108.3779907,54.3271704],[-108.3801382,54.3279903],[-108.3822101,54.3285477],[-108.3835373,54.3289631],[-108.3839179,54.3290253],[-108.3842587,54.3289877],[-108.384901,54.3288039],[-108.385272,54.3285332],[-108.3857403,54.327941],[-108.3862201,54.3259555],[-108.3864431,54.3258345],[-108.3869716,54.3257471],[-108.3906784,54.3255037],[-108.3911074,54.325531],[-108.3921985,54.3257883],[-108.3941942,54.3263349],[-108.3947637,54.326572],[-108.3964564,54.3275345],[-108.3977155,54.3280562],[-108.398215,54.3281839],[-108.3989797,54.3282543],[-108.4011763,54.3283016],[-108.4023546,54.328399],[-108.4031744,54.3285695],[-108.4042163,54.3291223]]},"properties":{"highway":"unclassified","lanes":"2","maxspeed":"80","source":"NRCan-CanVec-10.0","surface":"gravel","osmId":259361596,"osmType":"way","sourceUrl":"https://www.openstreetmap.org/way/259361596"}},{"type":"Feature","id":"way/259361610","geometry":{"type":"LineString","coordinates":[[-108.4781698,54.3836886],[-108.4781181,54.3837774],[-108.4782122,54.3865124],[-108.4781701,54.3884534],[-108.4783194,54.389787],[-108.478289,54.3907843],[-108.4781757,54.391627],[-108.4782843,54.3961333],[-108.4782587,54.3983084]]},"properties":{"highway":"unclassified","lanes":"2","maxspeed":"80","source":"NRCan-CanVec-10.0","surface":"dirt","osmId":259361610,"osmType":"way","sourceUrl":"https://www.openstreetmap.org/way/259361610"}},{"type":"Feature","id":"way/259361660","geometry":{"type":"LineString","coordinates":[[-108.3007559,54.2952846],[-108.3002522,54.3008656],[-108.3001239,54.3023551],[-108.3001005,54.3050608],[-108.3006438,54.3094424],[-108.3008044,54.3114509],[-108.3007787,54.3123134],[-108.3005024,54.3148876],[-108.2996186,54.3206308],[-108.2979848,54.3314728],[-108.2970596,54.3413507],[-108.2965594,54.3470935],[-108.295771,54.3558147],[-108.2955997,54.3567818],[-108.2950567,54.3587206],[-108.294238,54.3606352],[-108.2936221,54.3618082],[-108.2870778,54.3737356],[-108.2863828,54.375],[-108.2846275,54.3781937],[-108.2779309,54.3907106],[-108.276329,54.3932637],[-108.2703828,54.4018323],[-108.2649472,54.4096389],[-108.2640538,54.4107875],[-108.2627025,54.4123302],[-108.2518272,54.4235101],[-108.2512445,54.4241532],[-108.25,54.4257838],[-108.2498754,54.4259471],[-108.2488401,54.4278205],[-108.2484524,54.4287737],[-108.2461289,54.4358233],[-108.2452311,54.4377088],[-108.2445047,54.438879],[-108.2431816,54.4406649],[-108.2400135,54.4444225],[-108.2395282,54.4449869],[-108.2361262,54.4489998],[-108.2351396,54.4503617],[-108.2341673,54.4519668],[-108.2333928,54.4536123],[-108.2316149,54.4584625],[-108.2309296,54.460155],[-108.2299055,54.4620645],[-108.2291332,54.4632155],[-108.2278707,54.4647689],[-108.2207509,54.4728047],[-108.2200272,54.4736872],[-108.219255,54.4748292],[-108.2183722,54.4764631],[-108.2180301,54.4774083],[-108.2177326,54.4786061],[-108.2176207,54.4797993],[-108.217253,54.487959],[-108.2167102,54.5]]},"properties":{"highway":"secondary","lanes":"2","maxspeed":"100","ref":"903","source":"NRCan-CanVec-10.0","surface":"paved","osmId":259361660,"osmType":"way","sourceUrl":"https://www.openstreetmap.org/way/259361660"}},{"type":"Feature","id":"way/259361666","geometry":{"type":"LineString","coordinates":[[-108.4346173,54.5524953],[-108.4300107,54.5498127],[-108.4244475,54.54653],[-108.4220219,54.545046],[-108.4205496,54.543989],[-108.4191619,54.5428199],[-108.4172189,54.5410698],[-108.4121988,54.536372],[-108.410992,54.5352588],[-108.4102921,54.5343275],[-108.4098818,54.5334803],[-108.409749,54.532626],[-108.409749,54.5317998],[-108.4098952,54.5311836],[-108.410356,54.5301735],[-108.41138,54.5283908],[-108.411823,54.5275857],[-108.4125062,54.5263441],[-108.4129334,54.5255676],[-108.4131834,54.5251075],[-108.4133321,54.5248683],[-108.4135506,54.5244461],[-108.4137623,54.5240004],[-108.4139492,54.5235023],[-108.4140866,54.523003],[-108.4141474,54.5227115],[-108.4141947,54.5224252],[-108.4142217,54.5221481],[-108.4142555,54.5216971],[-108.4142645,54.5214761],[-108.4142645,54.5212944],[-108.414197,54.5203859],[-108.4140731,54.5192093],[-108.4139717,54.5182053],[-108.4139019,54.5174287],[-108.4138389,54.516877],[-108.4137938,54.5163762],[-108.4137037,54.5153865],[-108.4136722,54.51501],[-108.4135956,54.5144373],[-108.413501,54.5133988],[-108.4133946,54.512392],[-108.4132961,54.5114269],[-108.4132908,54.5112987],[-108.4132004,54.5104293],[-108.4131179,54.5096325],[-108.4130248,54.5087754],[-108.412969,54.5081901],[-108.4128945,54.5073561],[-108.4127828,54.5062241],[-108.412679,54.5049437],[-108.4125806,54.5039599],[-108.4125327,54.5034795],[-108.4123851,54.502063],[-108.4123199,54.5014561],[-108.4122641,54.5009263],[-108.4122242,54.5004706],[-108.412175,54.4998535],[-108.4116736,54.4948584],[-108.4111846,54.4897662],[-108.4109462,54.4888332],[-108.4100734,54.4860924],[-108.4098493,54.4854853],[-108.4097441,54.4851953],[-108.406545,54.4762174],[-108.4062062,54.4752302],[-108.4051843,54.4724986]]},"properties":{"highway":"tertiary","lanes":"2","maxspeed":"70","ref":"941","source":"NRCan-CanVec-10.0","surface":"gravel","osmId":259361666,"osmType":"way","sourceUrl":"https://www.openstreetmap.org/way/259361666"}},{"type":"Feature","id":"way/259507816","geometry":{"type":"LineString","coordinates":[[-108.3831829,54.5003425],[-108.3832691,54.5001165],[-108.3833942,54.4997645],[-108.3835444,54.4993608],[-108.3837502,54.4987956],[-108.3839198,54.4982982],[-108.3841311,54.497775],[-108.3843869,54.4971033],[-108.3846372,54.4963814],[-108.3848318,54.4958501],[-108.3850589,54.4952626],[-108.3853453,54.4945311],[-108.3856623,54.493659],[-108.3859237,54.4929872],[-108.3860794,54.4926189],[-108.3862879,54.4920634],[-108.3864687,54.4916273],[-108.3866383,54.4912704],[-108.3866995,54.4911735],[-108.3867634,54.4910862],[-108.3868496,54.4909942],[-108.3869275,54.4909215],[-108.3870192,54.4908488],[-108.3871332,54.4907681],[-108.3872973,54.4906663],[-108.3874586,54.4905694],[-108.3875809,54.4904887],[-108.3876894,54.4904095],[-108.3878006,54.4903207],[-108.3879118,54.4902206],[-108.3880036,54.4901285],[-108.3880814,54.4900364],[-108.388151,54.4899363],[-108.3882511,54.4897699],[-108.3883373,54.4896116],[-108.3884179,54.4894211],[-108.3884624,54.4893032],[-108.3885013,54.4891562],[-108.388518,54.4890447],[-108.3885208,54.4889333],[-108.3885033,54.4887987],[-108.3884401,54.4886006],[-108.3884151,54.4885117],[-108.3884179,54.4884293],[-108.3884401,54.4883599],[-108.3884985,54.4882921],[-108.3886793,54.4881386],[-108.3889614,54.4879324],[-108.3895891,54.4874496]]},"properties":{"highway":"residential","lanes":"2","maxspeed":"40","oneway":"no","surface":"unpaved","osmId":259507816,"osmType":"way","sourceUrl":"https://www.openstreetmap.org/way/259507816"}},{"type":"Feature","id":"way/259515872","geometry":{"type":"LineString","coordinates":[[-108.3889614,54.4879324],[-108.3892583,54.4878718],[-108.3896508,54.4878197],[-108.3900604,54.4877974],[-108.3903025,54.4878077]]},"properties":{"highway":"residential","maxspeed":"40","surface":"dirt","osmId":259515872,"osmType":"way","sourceUrl":"https://www.openstreetmap.org/way/259515872"}},{"type":"Feature","id":"way/438845789","geometry":{"type":"LineString","coordinates":[[-108.411823,54.5275857],[-108.4113438,54.5274601],[-108.4112875,54.5273535],[-108.4113289,54.5271258],[-108.411506,54.5266446],[-108.4116004,54.5264333],[-108.4117438,54.5261724],[-108.411756,54.5259991],[-108.4120373,54.5254862],[-108.4125339,54.5248676],[-108.4127855,54.5246063]]},"properties":{"highway":"residential","source":"improve_osm_tn","osmId":438845789,"osmType":"way","sourceUrl":"https://www.openstreetmap.org/way/438845789"}},{"type":"Feature","id":"way/438845790","geometry":{"type":"LineString","coordinates":[[-108.4125062,54.5263441],[-108.4117438,54.5261724],[-108.4116782,54.5261576],[-108.4109168,54.5259424],[-108.4104864,54.5257715],[-108.4102415,54.5255429],[-108.4098873,54.5251721],[-108.40949,54.5249108],[-108.4090795,54.5246015],[-108.4087121,54.5242979],[-108.4084969,54.5240347],[-108.4084141,54.5237158],[-108.4084108,54.5233469],[-108.4084936,54.5231529],[-108.4090729,54.522563]]},"properties":{"highway":"residential","source":"improve_osm_tn","osmId":438845790,"osmType":"way","sourceUrl":"https://www.openstreetmap.org/way/438845790"}},{"type":"Feature","id":"way/438845791","geometry":{"type":"LineString","coordinates":[[-108.4133321,54.5248683],[-108.4127855,54.5246063],[-108.412418,54.5242489],[-108.4117891,54.5239108],[-108.4107662,54.523417],[-108.4090729,54.522563],[-108.4075499,54.5219866]]},"properties":{"highway":"residential","source":"improve_osm_tn","osmId":438845791,"osmType":"way","sourceUrl":"https://www.openstreetmap.org/way/438845791"}},{"type":"Feature","id":"way/1116362729","geometry":{"type":"LineString","coordinates":[[-108.3991999,54.3127195],[-108.3991285,54.3126136],[-108.399276,54.3123664],[-108.3993887,54.3114589]]},"properties":{"highway":"unclassified","osmId":1116362729,"osmType":"way","sourceUrl":"https://www.openstreetmap.org/way/1116362729"}},{"type":"Feature","id":"way/1122478315","geometry":{"type":"LineString","coordinates":[[-108.217253,54.487959],[-108.2181001,54.4878342],[-108.2191032,54.4874571],[-108.2212329,54.4870302],[-108.2222307,54.4869866],[-108.2228583,54.4871019],[-108.2236791,54.4874353],[-108.2244569,54.4877438],[-108.22568,54.4880149],[-108.2287967,54.4887067],[-108.229368,54.4887752],[-108.2312778,54.4891616],[-108.2331419,54.489816],[-108.2334316,54.4900465],[-108.2338286,54.4907133],[-108.2344079,54.4913988],[-108.2349765,54.4917665],[-108.2357168,54.4919846],[-108.2362908,54.4920033],[-108.2373101,54.4921544],[-108.2385546,54.4923304],[-108.2399708,54.4927012],[-108.2404214,54.4927697],[-108.2414568,54.4931623],[-108.2425779,54.4933617],[-108.2438278,54.4937792],[-108.2446969,54.4939537],[-108.245759,54.4940409],[-108.2468855,54.4940098],[-108.2472825,54.4940285],[-108.2487846,54.4944148],[-108.2504583,54.4949382],[-108.2526362,54.4954367],[-108.2530332,54.4954491],[-108.2539022,54.4953681],[-108.2544065,54.4953931],[-108.2560909,54.4955052],[-108.2572872,54.4955613],[-108.2579684,54.4955177],[-108.2591647,54.4957264],[-108.259846,54.4959289],[-108.2599747,54.4960629],[-108.2599211,54.4967483],[-108.2601249,54.4970193],[-108.2605487,54.4972498],[-108.261981,54.4977919],[-108.263762,54.4984368],[-108.2651353,54.4988636],[-108.2673776,54.4990629],[-108.2693303,54.4995302],[-108.2698989,54.4997483],[-108.2713902,54.5004897],[-108.2723343,54.5008323],[-108.2733321,54.5010379],[-108.2747376,54.5009507],[-108.2753706,54.5009133],[-108.2763684,54.501066],[-108.2779777,54.5014522],[-108.2795388,54.5018042],[-108.2804775,54.50215],[-108.2812393,54.5023992],[-108.2820654,54.5024179],[-108.2825804,54.5023898],[-108.2834226,54.5020752],[-108.2837606,54.5018728],[-108.2846403,54.5016672],[-108.2857025,54.501365],[-108.2866788,54.5012124],[-108.2877195,54.5011843],[-108.2883149,54.5011968],[-108.2890177,54.5010566],[-108.2911313,54.5006361],[-108.2930034,54.5003775],[-108.2968605,54.5001408],[-108.3006585,54.5005021],[-108.3035553,54.5021095],[-108.3054328,54.5033991],[-108.3075249,54.5044955],[-108.310926,54.5053489],[-108.3135653,54.5056916],[-108.314445,54.5057227],[-108.3149386,54.5058411],[-108.3162046,54.5061588],[-108.3170736,54.506545],[-108.3184791,54.5069935],[-108.3198631,54.5074046],[-108.3204424,54.5075105],[-108.3214939,54.5075354],[-108.3222556,54.5077534],[-108.3229315,54.5085445]]},"properties":{"highway":"unclassified","osmId":1122478315,"osmType":"way","sourceUrl":"https://www.openstreetmap.org/way/1122478315"}},{"type":"Feature","id":"way/1424952198","geometry":{"type":"LineString","coordinates":[[-108.4109043,54.4973352],[-108.4105911,54.4973379],[-108.4101084,54.4973777],[-108.4097375,54.4973923],[-108.4093055,54.4974099],[-108.4089138,54.4974811],[-108.4085563,54.4976007],[-108.4083114,54.4977756],[-108.4079318,54.4981295],[-108.4076338,54.4983512],[-108.4066929,54.4988162],[-108.4051363,54.4996206],[-108.4047937,54.4998596],[-108.4046325,54.5000353],[-108.4043611,54.5004509]]},"properties":{"highway":"service","surface":"unpaved","osmId":1424952198,"osmType":"way","sourceUrl":"https://www.openstreetmap.org/way/1424952198"}}]}
